intime,FNAME,CTG,box,address,city,state,zip,visitor2,notes
1493064617,test,vs,0|1|2|3|4|5|6|7|8|9|10|11|12|13|14|15|16|17|18|19|20|21|22|23,"... optional ...","... optional ...","... optional ...","... optional ...",visitor2,notes
intime,CTG,box,email,address,city,state,zip,visitor2,notes
1493064024,vs,20,test,"... optional ...","... optional ...","... optional ...","... optional ...",visitor2,notes
intime,CTG,box,email,address,city,state,zip,visitor2,notes
1493063945,vs,17,test,"... optional ...","... optional ...","... optional ...","... optional ...",visitor2,notes
intime,CTG,box,email,phone,address,city,state,zip,visitor2,notes
1493063688,vs,18|19|21,test,test,"... optional ...","... optional ...","... optional ...","... optional ...",visitor2,notes
intime,FNAME,LNAME,CTG,email,phone,address,city,state,zip,visitor2,notes
1493055751,Julie,Lemke,vs,PearlieGirl@ymail.com,310-832-2752,"... optional ...","... optional ...","... optional ...","... optional ...",visitor2,notes
intime,FNAME,LNAME,CTG,box,email,phone,address,city,state,zip,Prospective0,GenderM0,Age0,visitor2,visitorstaffnotes,notes
1492993407,Ilene,Brown,vs,5|6|7|8|9|10|15,holdensbrown@gmail.com,310-951-8138,"... optional ...","... optional ...","... optional ...","... optional ...",evan,on,21,visitor2,spectrum,notes
intime,FNAME,LNAME,CTG,box,email,phone,address,city,state,zip,visitor2,notes
1492915059,Alice,Raab,vs,0|1|4|9|11|12|16,alice.raab.bravo@gmail.com,3107292602,"... optional ...","... optional ...","... optional ...","... optional ...",visitor2,notes
intime,FNAME,LNAME,CTG,email,phone,address,city,state,zip,visitor2,notes
1492892472,Clara,"Brigge Morris",vs,clarabrigge@gmail.com,310-384-4592,"... optional ...","... optional ...","... optional ...","... optional ...",visitor2,notes
intime,FNAME,LNAME,CTG,box,email,phone,address,city,state,zip,visitor2,visitornotes,notes
1492887640,matt,shores,vs,5|22,matt@emptyclipstudios.com,415-505-9871,"609 Deep Valley Dr#200","Rolling Hills Estates",CA,90274,visitor2,"Volunteer, CEO of Empty Clip Studios, Game Designer",notes
intime,FNAME,LNAME,CTG,box,email,phone,address,city,state,zip,Prospective0,GenderF0,Age0,propemail0,visitor2,notes
1492827979,MARK,SARNI,vs,4|5|10|14|16|20,SOUTHBAYADR@GMAIL.COM,310-486-0817,"... optional ...","... optional ...","... optional ...","... optional ...",KARMA,on,12,SOUTHBAYADR@GMAIL.COM,visitor2,notes
intime,FNAME,LNAME,CTG,box,email,phone,address,city,state,zip,Prospective0,GenderM0,Age0,visitor2,visitornotes,notes
1492814084,Sheila,Anderson,vs,0|1|4|5|6|7|8|9|10,sfa0277@gmail.com,310-374-0551,"... optional ...","... optional ...","... optional ...","... optional ...",Liam,on,13,visitor2,"Margaret Mary in Lomita",notes
intime,FNAME,LNAME,CTG,email,phone,address,city,state,zip,Prospective0,GenderM0,visitor2,notes
1492729309,Lauren,Matchison,vs,lmatchis@usc.edu,7148309511,"... optional ...","... optional ...","... optional ...","... optional ...",Ethan,on,visitor2,notes
intime,FNAME,LNAME,CTG,box,email,phone,address,city,state,zip,Prospective0,GenderF0,propemail0,visitor2,notes
1492647723,Brian,Yue,vs,1|4|10|20,brianyue@gmail.com,310-493-5698,"... optional ...","... optional ...","... optional ...","... optional ...",Mia,on,brianyue@gmail.com,visitor2,notes
intime,FNAME,LNAME,CTG,box,email,phone,address,city,state,zip,Prospective0,GenderM0,Age0,propemail0,visitor2,visitorstaffnotes,notes
1492467586,"Shiva ",Asrari,vs,5|6|7|8|9|11|12|15,sasrari@sbcglobal.net,734-645-3779,"... optional ...","... optional ...","... optional ...","... optional ...","Shayan Saadat",on,16,ShayanSaadat0@gmail,visitor2,"considering APCS",notes
intime,FNAME,LNAME,CTG,box,email,phone,address,city,state,zip,Prospective0,GenderM0,visitor2,visitornotes
1492456560,Shantel,Luciano,vs,20,sluciano23@gmail.com,3107225856,"... optional ...","... optional ...","... optional ...","... optional ...","Rico Hernandez",on,visitor2,"RIco will be 6 in august, husband also wants to get emails as well, please add him
"
intime,FNAME,LNAME,CTG,box,email,phone,address,city,state,zip,visitor2,visitornotes,notes
1492299552,Melissa,Audain,vs,1|3|14|23,melissakmc02@gmail.com,424-237-6202,"... optional ...","... optional ...","... optional ...","... optional ...",visitor2,"Student: Amaya Audain, 10 y/o ",notes
intime,FNAME,LNAME,CTG,email,phone,city,state,zip,visitor2,visitornotes,notes
1492288914,Karim,Lagobi,vs,karim@lagobi.com,3104350083,"... optional ...","... optional ...","... optional ...",visitor2,"Patent Agent, Neuroscience, Computer Science",notes
intime,FNAME,LNAME,CTG,box,email,phone,address,city,state,zip,Prospective0,GenderM0,Age0,propemail0,visitor2,notes
1492230834,"William ",Nelson,vs,16,wrnelson98@yahoo.com,301-567-7506,"... optional ...","... optional ...","... optional ...","... optional ...","William Nelson",on,19,wrnelson98@yahoo.com,visitor2,notes
intime,FNAME,LNAME,CTG,box,email,phone,address,city,state,zip,visitor2,visitornotes,notes
1492208046,Alex,Medina,vs,5|10|13|14|20,Billyrui93@gmail.com,310.213.5041,"... optional ...","... optional ...","... optional ...","... optional ...",visitor2,"Checking programs that are offered.",notes
intime,FNAME,LNAME,CTG,box,email,phone,address,city,state,zip,visitor2,notes
1492134833,Alonso,Osorio,vs,7|15,aosokal5@icloud.com,7025736722,"... optional ...","... optional ...","... optional ...","... optional ...",visitor2,notes
intime,FNAME,LNAME,CTG,box,email,phone,address,city,state,zip,Prospective0,GenderM0,propemail0,Prospective1,GenderF1,propemail1,visitor2,notes
1491863630,susan,kim,vs,1|3|10,susanjmkim@yahoo.com,2135052850,"... optional ...","... optional ...","... optional ...","... optional ...","Connor Kim",on,susanjmkim@yahoo.com,"Taylor Kim",on,susanjmkim@yahoo.com,visitor2,notes
intime,FNAME,LNAME,CTG,box,email,phone,address,city,state,zip,visitor2,visitornotes
1491851635,Wesley,Stedman,vs,10|11|13|16,wesleystedman@gmail.com,4242414002,"... optional ...","... optional ...","... optional ...","... optional ...",visitor2,"Volunteering opportunity
"
intime,FNAME,LNAME,CTG,box,email,phone,address,city,state,zip,visitor2,notes
1491690037,Max,Mariscal,vs,1|4|10,max4mariscal@gmail.com,2133004104,"... optional ...","... optional ...","... optional ...","... optional ...",visitor2,notes
intime,FNAME,LNAME,CTG,email,phone,address,city,state,zip,visitor2,visitorstaffnotes,notes
1491591803,"emily and bill",weldon,vs,beweldon88@gmail.com,3103778141,"... optional ...","... optional ...","... optional ...","... optional ...",visitor2,"computer classes for senior citizens",notes
intime,FNAME,LNAME,CTG,phone,address,city,state,zip,visitor2,visitorstaffnotes,notes
1491175097,"Caroll ",Spencer,vs,310-540-3673,"4021 Via Cardelina","Palos Verdes Estates",CA,90274,visitor2,"will email Ted she has homeschool group",notes
intime,FNAME,LNAME,CTG,email,phone,address,city,state,zip,visitor2,visitornotes,notes
1491160334,Benjamin,Ting,vs,benjamin.ting@gmail.com,6175289447,"... optional ...","... optional ...","... optional ...","... optional ...",visitor2,"tinkering workshops",notes
intime,FNAME,LNAME,CTG,box,email,phone,address,city,state,zip,Prospective0,GenderM0,visitor2,visitornotes,visitorstaffnotes,notes
1491106363,Elham,Tavabi,vs,5|6|7|9|10|15,Elmers11@hotmail.com,310-701-1416,"... optional ...","... optional ...","... optional ...","... optional ...",Kian,on,visitor2,Larchmont,"Mom teaches 1st grade at Larchmont",notes
intime,FNAME,LNAME,CTG,box,email,phone,address,city,state,zip,Prospective0,GenderF0,Age0,visitor2,notes
1491007514,lili,chan,vs,4|11|20,lnarwati@gmail.com,310-938-6192,"... optional ...","... optional ...","... optional ...","... optional ...","Lili Chan",on,6.5,visitor2,notes
intime,FNAME,LNAME,CTG
1491006726,Hailey,Ivanson,vs|s
intime,FNAME,LNAME,CTG,box,email,phone,address,city,state,zip,Prospective0,GenderM0,Age0,propemail0,visitor2,notes
1490902680,kelly,schmit,vs,1|5|6|7|15|17,kls4999@aol.com,3106293489,"... optional ...","... optional ...","... optional ...","... optional ...","Nick Schmit",on,15,nschmit2711@gmail.com,visitor2,notes
intime,FNAME,LNAME,CTG,email,address,city,state,zip,Prospective0,GenderM0,Prospective1,GenderF1,visitor2,visitornotes,visitorstaffnotes,notes
1490835940,Carol,Wang,vs,chiajuwang@gmail.com,"... optional ...","... optional ...","... optional ...","... optional ...","Daniel Huang",on,"Nicole Huang",on,visitor2,"Vista Grande","Interested in summer program, possibly after school in the future.",notes
intime,FNAME,LNAME,CTG,email,address,city,state,zip,Prospective0,GenderM0,visitor2,visitorstaffnotes,notes
1490643665,"judy ",ruiz,vs,judy_ruiz@rocketmail.com,"... optional ...","... optional ...","... optional ...","... optional ...","logan morgan",on,visitor2,"morgan, math tutoring with game incentive.",notes
intime,FNAME,LNAME,CTG,box,email,phone,address,city,state,zip,Prospective0,GenderM0,Age0,propemail0,visitor2,notes
1490567111,CJ,Boling,vs,16|17,thesaltiestboys@gmail.com,7067555017,"... optional ...","... optional ...","... optional ...","... optional ...",CJ,on,12,thesaltiestboys@gmail.com,visitor2,notes
intime,FNAME,LNAME,CTG,box,email,phone,city,state,zip,visitor2,notes
1490415853,"jennifer ",castro,vs,1|3|4|5|8|9|10|14|15|16|17|20|21,jennycstrox3@gmail.com,4244776379,"... optional ...","... optional ...","... optional ...",visitor2,notes
intime,FNAME,LNAME,CTG,box,email,phone,city,state,zip,Prospective0,GenderF0,Age0,propemail0,visitor2,notes
1490403166,Hailey,Ivanson,vs,0|1|2|3|4|5|6|7|8|9|10|11|13|14|15|16|17|20,hcivanson@gmail.com,1(310)341-8333,"... optional ...","... optional ...","... optional ...","Hailey Ivanson",on,14,hcivanson@gmail.com,visitor2,notes
intime,FNAME,LNAME,CTG,box,email,phone,address,city,state,zip,visitor2,visitornotes,notes
1490396974,Suzanne,Amaira,vs,1|2|4|5|10|14,umm.noor@gmail.com,4242503650,"... optional ...","... optional ...","... optional ...","... optional ...",visitor2,"My kids are currently homeschooled.",notes
intime,FNAME,LNAME,CTG,box,email,phone,address,city,state,zip,Prospective0,GenderF0,Age0,visitor2,notes
1490396473,Elana,Ho,vs,13,elanaho@gmail.com,310-808-3799,"... optional ...","... optional ...","... optional ...","... optional ...","Elana Ho",on,14,visitor2,notes
intime,FNAME,LNAME,CTG,email,phone,address,city,state,zip,Prospective0,GenderF0,Age0,visitor2,visitorstaffnotes,notes
1490232423,Sookie,Lee,vs,33sookie@gmail.com,310-614-7774,"... optional ...","... optional ...","... optional ...","... optional ...","Tiffany Chang",on,11,visitor2,"Refer into girls who code  ",notes
intime,FNAME,LNAME,CTG,box,email,phone,address,city,state,zip,Prospective0,GenderM0,Age0,propemail0,visitor2,visitornotes,notes
1490118884,"Nancy K",Brigden,vs,3|5|10|17,nkbrigden@gmail.com,"310 245-4975","... optional ...","... optional ...","... optional ...","... optional ...","John A Gastanaga",on,12,jagman329@gmail.com,visitor2,"John wants to build a computer.  (for gaming, with transparent walls, etc.......lots of ideas!)",notes
intime,FNAME,LNAME,CTG,box,email,phone,address,city,state,zip,Prospective0,GenderF0,propemail0,visitor2,visitornotes,notes
1490045238," mauricio",caceres,vs,4,mauricio@rctransportation.net,3105625279,"... optional ...","... optional ...","... optional ...","... optional ...","alexis abdon",on,mauricio@rctransportation.net,visitor2,Art,notes
intime,FNAME,LNAME,CTG,box,email,phone,address,city,state,zip,Prospective0,GenderF0,visitor2,visitornotes,notes
1489968960,Lera,Ashe,vs,10,LERAASHE@gmail.com,323-500-7099,"... optional ...","... optional ...","... optional ...","... optional ...",Kylee,on,visitor2,"Include in tinkering workshops",notes
intime,FNAME,LNAME,CTG,email,address,city,state,zip,Prospective0,GenderM0,Age0,visitor2,visitornotes,notes
1489965957,Julie,Maemoto,vs,jmaemoto@aol.com,"... optional ...","... optional ...","... optional ...","... optional ...",David,on,13,visitor2,"interested in sujmmer program for her son 8th grade. I mentioned that Internship is less costly than STEM U summer camp for the whole summer",notes
intime,FNAME,LNAME,CTG,box,email,phone,address,city,state,zip,Prospective0,GenderM0,visitor2,visitornotes,notes
1489896865,Azadeh,Khatibi,vs,0|1|2|4|5|6|7|8|9|15,eye.azadeh@gmail.com,"(510) 388-3404","... optional ...","... optional ...","... optional ...","... optional ...",Jahan,on,visitor2,"Rolling Robots, loves 3D game design, 3 D printing.  Interested in laser printing.",notes
intime,FNAME,LNAME,CTG,email,address,city,state,zip,Prospective0,GenderF0,visitor2,visitornotes
1489895339,Yev,Segal,vs,ybsegal@gmail.com,"... optional ...","... optional ...","... optional ...","... optional ...",Lea,on,visitor2,"like to make stuff
"
intime,FNAME,LNAME,CTG,email,address,city,state,zip,Prospective0,GenderM0,visitor2,visitornotes,notes
1489892652,Alina,Slamar,vs,silpower2@aol.com,"... optional ...","... optional ...","... optional ...","... optional ...",Aidan,on,visitor2,"Tinkering Workshops",notes
intime,FNAME,LNAME,CTG,box,email,address,city,state,zip,Prospective0,GenderF0,visitor2,visitornotes
1489892445,Estera,Slamar,vs,10,Esterazarko@aol.com,"... optional ...","... optional ...","... optional ...","... optional ...",Frances,on,visitor2,"also ages 7
"
intime,FNAME,LNAME,CTG,box,email,phone,address,city,state,zip,Prospective0,GenderF0,visitor2,visitornotes,notes
1489891004,Nanette,Lopez,vs,10,lopeznanette@rocketmail.com,323-391-5284,"... optional ...","... optional ...","... optional ...",90250,Eviana,on,visitor2,"Loves Minecraft! Loves dogs",notes
intime,FNAME,LNAME,CTG,box,email,address,city,state,zip,Prospective0,GenderF0,Age0,visitor2,notes
1489885794,Linda,Baghbanmanesh,vs,1|4|10,lindabagh@yahoo.com,"... optional ...","... optional ...","... optional ...","... optional ...","Delilah Baghbanmanesh",on,14,visitor2,notes
intime,FNAME,LNAME,CTG,email,phone,address,city,state,zip,visitor2,notes
1489861560,Jenny,Wang,vs,jennylee88@cox.net,3109238155,"... optional ...","... optional ...","... optional ...","... optional ...",visitor2,notes
intime,FNAME,LNAME,CTG,box,email,phone,address,city,state,zip,Prospective0,GenderM0,Prospective1,GenderM1,Age1,Prospective2,GenderM2,Age2,visitor2,notes
1489810146,Adei,Getachew,vs,1|2|3|5|10|11|13,adeigetachew@gmail.com,"310 864-2497","... optional ...","... optional ...","... optional ...","... optional ...","Ezekiel Simon-Thompson",on,"Aman Stevenson",on,13,"Zion Clark",on,15,visitor2,notes
intime,FNAME,LNAME,CTG,box,email,phone,address,city,state,zip,Prospective0,GenderM0,visitor2,notes
1489810059,Banchirga,Kebede,vs,1|2|3|5|10|11|13,banchirga@gmail.com,"310 930-8794","... optional ...","... optional ...","... optional ...","... optional ...",Gebriel,on,visitor2,notes
intime,FNAME,LNAME,CTG,box,email,phone,address,city,state,zip,Prospective0,GenderM0,propemail0,visitor2,notes
1489797598,nic,brae,vs,3|5|9|10,nikkinaya@yahoo.com,3106262466,"... optional ...","... optional ...","... optional ...","... optional ...","nic brae",on,nikkinaya@yahoo.com,visitor2,notes
intime,FNAME,LNAME,CTG,email,address,city,state,zip,Prospective0,GenderM0,visitor2,visitorstaffnotes,notes
1489627344,John,Todd,vs,jtodd27@hotmail.com,"... optional ...","... optional ...","... optional ...","... optional ...",John,on,visitor2,"Attending SJF, 3rd grade, video games. loves his dog, likes to hack, spent time at Rolling Robots",notes
intime,FNAME,LNAME,CTG,email,phone,address,city,state,zip,Prospective0,GenderM0,visitor2,visitorstaffnotes,notes
1489532050,Bruce,Everett,vs,chathams@aol.com,202-258-7808,"... optional ...","... optional ...","... optional ...","... optional ...",Benjamin,on,visitor2,"Interested in Tinkering workshops - add to list",notes
intime,FNAME,LNAME,CTG,box,email,address,city,state,zip,Prospective0,GenderF0,Age0,visitor2,notes
1489457438,Zoe,Santoro,vs,1|4|5|6|8|9|13|14|15|16|17,zzoe12@gmail.com,"... optional ...","... optional ...","... optional ...","... optional ...","Zoe Santoro",on,17,visitor2,notes
intime,FNAME,LNAME,CTG,box,email,address,city,state,zip,Prospective0,GenderM0,visitor2,notes
1489454066,TIJANA,TRIPALO,vs,5|6|7|8|9|10,TIXON74@GMAIL.COM,"... optional ...","... optional ...","... optional ...","... optional ...",KOSTA,on,visitor2,notes
intime,FNAME,LNAME,CTG,box,email,phone,address,city,state,zip,Prospective0,GenderM0,propemail0,visitor2,notes
1489443548,"Catherine ","Lo Iacono",vs,1|2|3|4|5|10|13|14|20,catherine.loiacono@yahoo.com,"424 201 9415","... optional ...","... optional ...","... optional ...","... optional ...","Daniele Lo Iacono",on,catherine.loiacono@yahoo.com,visitor2,notes
intime,FNAME,LNAME,CTG,email,phone,city,state,zip,Prospective0,GenderM0,Age0,visitor2,notes
1489294273,kelly,grasso,vs,kellygrasso87@gmail.com,310-748-0750,"... optional ...","... optional ...","... optional ...",Austin,on,15,visitor2,notes
intime,FNAME,LNAME,CTG,box,email,address,city,state,zip,Prospective0,GenderF0,visitor2,notes
1489285423,Mark,Chalfin,vs,1,mchalfin4625@gmail.com,"... optional ...","... optional ...","... optional ...","... optional ...",Lila,on,visitor2,notes
intime,FNAME,LNAME,CTG,box,email,phone,address,city,state,zip,Prospective0,GenderM0,visitor2,visitornotes,notes
1489280988,claudia,navarro,vs,5|6|7|8|9,cnavarro037@yahoo.com,310-9408063,"3720 emerald st #v2",torrance,ca,90503,daniel,on,visitor2,"uncle is a councelor at el camino collegue",notes
intime,FNAME,LNAME,CTG,box,email,address,city,state,zip,Prospective0,GenderM0,propemail0,visitor2,notes
1489274537,Tracy,Baker,vs,10,tracybaker@aol.com,"726 4th St","Hermosa Beach",CA,90254,"Jonah Moore",on,jcmoore100@gmail.com,visitor2,notes
intime,CTG,address,city,state,zip,visitor2,notes
1489257701,vs,"... optional ...","... optional ...","... optional ...","... optional ...",visitor2,notes
intime,FNAME,LNAME,CTG,visitor,box,sponsor,CompanyName,CompanyCity,CompanyWebsite,email,phone,address,city,state,zip,visitor2,notes
1489202551,kevin,torf,vs,visitor,0|1|3|4|15|20,sponsor,"T2 Tech Group",Torrance,www.t2techgroup.com,kevintorf@gmail.com,424-212-8902,"... optional ...","... optional ...","... optional ...","... optional ...",visitor2,notes
intime,FNAME,LNAME,CTG,email,address,city,state,zip,Prospective0,GenderF0,Age0,visitor2,notes
1489189679,"Sandra ",Gutierrez,vs,gutierrezfamily90505@yahoo.com,"... optional ...","... optional ...","... optional ...","... optional ...",Elizabeth,on,16,visitor2,notes
intime,FNAME,LNAME,CTG,box,email,phone,address,city,state,zip,Prospective0,GenderM0,Age0,propemail0,Prospective1,GenderF1,propemail1,visitor2,notes
1489169961,marisa,checa,vs,1|2|3|6|9|10|13|15,mlcheca@gmail.com,310-977-7872,"... optional ...","... optional ...","... optional ...","... optional ...","Alex Ambite",on,10,mlcheca@gmail.com,"Sara Ambite",on,mlcheca@gmail.com,visitor2,notes
intime,FNAME,LNAME,CTG,box,email,address,city,state,zip,Prospective0,GenderM0,visitor2,visitornotes,notes
1489106591,Tamami,Kamiya,vs,5|6|7|8|9|10,tkamiya2@socal.rr.com,"... optional ...","... optional ...","... optional ...","... optional ...",Sora,on,visitor2,"Likes game design!!!",notes
intime,FNAME,LNAME,CTG,box,email,phone,city,state,zip,Prospective0,GenderM0,visitor2,notes
1489026960,Carolina,Quijano,vs,10,carolinaquijano@hotmail.com,9179304272,"... optional ...","... optional ...",90277,"Antonio Pachon",on,visitor2,notes
intime,FNAME,LNAME,CTG,box,email,phone,city,state,zip,Prospective0,GenderF0,Age0,propemail0,visitor2,notes
1488934729,karie,shehadey,vs,0|1|2|3|4|5|6|7|8|9|10|11|12|13|14|15|16|17,madsoph825@gmail.com,3109720015,"... optional ...","... optional ...","... optional ...","maddie shehadey",on,10,madsoph825@gmail.com,visitor2,notes
intime,FNAME,LNAME,CTG,box,email,phone,address,city,state,zip,Prospective0,GenderF0,propemail0,visitor2,visitornotes,notes
1488934652,Heather,Fleming,vs,0|1|2|3|4|5|6|7|8|9|10|11|12|13|14|15|16|17|22,hfleming48@gmail.com,"310 487 2051","... optional ...","... optional ...","... optional ...","... optional ...",Nova,on,hfleming48@gmail.com,visitor2,"Thank you!",notes
intime,FNAME,LNAME,CTG,CLASSN
1488930771,mariano,borgonovo,vs|s,"stem u"
intime,FNAME,LNAME,CTG,box,email,phone,address,city,state,zip,Prospective0,GenderM0,visitor2,notes
1488910555,Xochilt,Jimenez,vs,0|1|2|3|4|5|7|10|15,Xochiltjimenez200713@gmail.com,4083100664,"... optional ...","... optional ...","... optional ...","... optional ...","Nathan Jacob Jimenez",on,visitor2,notes
intime,FNAME,LNAME,CTG,box,email,phone,address,city,state,zip,Prospective0,GenderM0,propemail0,visitor2,notes
1488687373,LORENZO,ABEYTA,vs,1|2|3|5|10|20,altkings@sbcglobal.net,310-326-8151,"26011 Oakbay Road",Torrance,CA,90505,Jonah,on,altkings@sbcglobal.net,visitor2,notes
intime,FNAME,LNAME,CTG,box,email,address,city,state,zip,Prospective0,GenderM0,Age0,Prospective1,GenderM1,Age1,visitor2,notes
1488604545,Laura,Witten,vs,0|1|3|4|5|8|15|16,laura8900@gmail.com,"... optional ...","... optional ...","... optional ...","... optional ...","AJ ",on,10,Joseph,on,12,visitor2,notes
intime,FNAME,LNAME,CTG,box,email,address,city,state,zip,Prospective0,GenderM0,visitor2,notes
1488595916,Yani,Wong,vs,4|10|20,yani.wong.2015@gmail.com,"... optional ...","... optional ...","... optional ...","... optional ...","Evan ",on,visitor2,notes
intime,CTG,box,address,city,state,zip,visitor2,notes
1488590523,vs,12|13|14|15|16|17|18|19|20|21|22|23,"... optional ...","... optional ...","... optional ...","... optional ...",visitor2,notes
intime,CTG,box,address,city,state,zip,visitor2,notes
1488590290,vs,20,"... optional ...","... optional ...","... optional ...","... optional ...",visitor2,notes
intime,FNAME,LNAME,CTG,box,address,city,state,zip,visitor2,notes
1488587223,test,test,vs,19,"... optional ...","... optional ...","... optional ...","... optional ...",visitor2,notes
intime,FNAME,LNAME,CTG,box,email,phone,address,city,state,zip,visitor2,notes
1488409355,Owen,Liebenberg,vs,1|5|6|11|12|13|15|17,owen.liebenberg@gmail.com,(310)857-9209,"... optional ...","... optional ...","... optional ...","... optional ...",visitor2,notes
intime,FNAME,LNAME,CTG,email,phone,address,city,state,zip,visitor2,visitornotes,notes
1488396302,William,Neumann,vs,luftmann2@yahoo.com,9097664444,"... optional ...","... optional ...","... optional ...","... optional ...",visitor2,"SpaceEngineers.com fan. Wanted to spread the word.",notes
intime,FNAME,LNAME,CTG,box,email,address,city,state,zip,visitor2,notes
1488327218,anne,ortega,vs,13|14|16,annemilly2003@yahoo.com,"... optional ...","... optional ...","... optional ...","... optional ...",visitor2,notes
intime,FNAME,LNAME,CTG,box,email,address,city,state,zip,visitor2,notes
1488327146,bianca,henry,vs,16,henrymarley64@gmail.com,"... optional ...","... optional ...","... optional ...","... optional ...",visitor2,notes
intime,FNAME,LNAME,CTG,box,email,address,city,state,zip,visitor2,notes
1488327081,Emilly,Ortega,vs,15|16,savannah.ortega52@yahoo.com,"... optional ...","... optional ...","... optional ...","... optional ...",visitor2,notes
intime,FNAME,LNAME,CTG,box,email,phone,city,state,zip,visitor2,notes
1488232121,Jeff,Watson,vs,0|1|3|4,jeffwatso@gmail.com,8189271122,"... optional ...","... optional ...","... optional ...",visitor2,notes
intime,FNAME,LNAME,CTG,CLASSN
1488150558,Kevin,Chen,vs|s,Tutor
intime,FNAME,LNAME,CTG,box,email,address,city,state,zip,visitor2,notes
1488082953,Hunter,Newcomer,vs,4|9|10|16,hunternewphoto@sbcglobal.net,"... optional ...","... optional ...","... optional ...","... optional ...",visitor2,notes
intime,FNAME,LNAME,CTG,box,email,phone,address,city,state,zip,Prospective0,GenderM0,Age0,propemail0,visitor2,notes
1488069847,Aaron,Morris,vs,0|1|2|4|5|8|9|10|15,aaron.morris@mac.com,5126580190,"2508 Via Pinale","Palos Verdes Estates",CA,90274,Grayson,on,11,Gamorris@gmail.com,visitor2,notes
intime,FNAME,LNAME,CTG,box,email,address,city,state,zip,Prospective0,GenderM0,visitor2,notes
1488056370,alex,portet,vs,0|1|2|3|4|15,alex.portet@hotmail.com,"... optional ...","... optional ...","... optional ...","... optional ...",Luca,on,visitor2,notes
intime,FNAME,LNAME,CTG,box,email,phone,address,city,state,zip,Prospective0,GenderM0,Age0,visitor2,notes
1488054976,nancy,ikegami,vs,11,nhikegami@yahoo.com,3106506296,"... optional ...","... optional ...","... optional ...","... optional ...",ethan,on,14,visitor2,notes
intime,FNAME,LNAME,CTG,email,phone,address,city,state,zip,visitor2,notes
1488050435,Chhi'med,Kunzang,vs,clkunzang@gmail.com,424/298-0131,"... optional ...","... optional ...","... optional ...","... optional ...",visitor2,notes
intime,FNAME,LNAME,CTG,box,email,phone,address,city,state,zip,Prospective0,GenderM0,Age0,visitor2,notes
1487994675,chris,mone,vs,0|1|4|9|10,cmmone5@gmail.com,3109168791,"... optional ...","... optional ...","... optional ...","... optional ...","Austin Mone",on,13,visitor2,notes
intime,FNAME,LNAME,CTG,box,email,phone,address,city,state,zip,Prospective0,GenderF0,Age0,propemail0,visitor2,notes
1487992146,Kim,Crocker,vs,3|4|5|11|13|14|16|17|18,kimcrocker@comcast.net,301275-4416,"3805 Crestway Place","Los Angeles",Ca,90043,"Brooke Crocker",on,14,4louise2@gmail.com,visitor2,notes
intime,FNAME,LNAME,CTG,box,email,address,city,state,zip,Prospective0,GenderM0,visitor2,visitornotes,notes
1487987126,Mandy,Hillstrom,vs,2|5,mandyhillstromrd@gmail.com,"... optional ...","... optional ...","... optional ...","... optional ...",Allen,on,visitor2,"Interested in JAVA",notes
intime,FNAME,LNAME,CTG,box,email,phone,city,state,zip,Prospective0,GenderM0,propemail0,visitor2,notes
1487982459,Latrice,Allen,vs,0|1|2|3|8|9|10,lallenmd@gmail.com,3109014977,"... optional ...","... optional ...","... optional ...","Noah Shepherd",on,lallenmd@gmail.com,visitor2,notes
intime,FNAME,LNAME,CTG,box,email,phone,city,state,zip,visitor2,notes
1487898090,michael,destephen,vs,1|2|3|4|5|6|7|8|9|11|12|13|14|15|17,michaeldestephen@yahoo.com,3102932915,"... optional ...",CA,90274,visitor2,notes
intime,FNAME,LNAME,CTG,email,phone,address,city,state,zip,visitor2,notes
1487894948,Shirin,Klein,vs,esklein4@gmail.com,310-963-8448,"... optional ...","... optional ...","... optional ...","... optional ...",visitor2,notes
intime,FNAME,LNAME,CTG,box,email,phone,address,city,state,zip,Prospective0,GenderF0,propemail0,visitor2,notes
1487809082,TODD,BAUSCH,vs,10,TOWGOD_289@HOTMAIL.COM,3104935798,"... optional ...","... optional ...","... optional ...","... optional ...",DESTINY,on,11,visitor2,notes
intime,FNAME,LNAME,CTG,visitor,box,sponsor,CompanyName,CompanyCity,CompanyWebsite,Notes,email,phone,address,city,state,zip,Prospective0,GenderM0,propemail0,visitor2,visitornotes,visitorstaffnotes,notes
1487800264,test,test,vs,visitor,0|1|2,sponsor,test,test,test,test,guardianemail,guardianphone,"... optional ...","... optional ...","... optional ...","... optional ...",studentname,on,11,visitor2,"this is a note area meant for staff members","this is a note area meant for staff members",notes
intime,FNAME,LNAME,CTG,box,email,address,city,state,zip,visitor2
1487639300,Iris,Zelaya,vs,0|4|6|7|8|9|10|14,zelaya_iris@ymail.com,"... optional ...","... optional ...","... optional ...","... optional ...",visitor2
intime,FNAME,LNAME,CTG,box,email,address,city,state,zip,visitor2
1487626950,Issei,Fukuda,vs,10,chamirew@yahoo.com,"... optional ...","... optional ...","... optional ...","... optional ...",visitor2
intime,FNAME,LNAME,CTG,box,email,address,city,state,zip,visitor2
1487547675,yuki,merino,vs,1,yuki1003@hotmail.com,"... optional ...","... optional ...","... optional ...","... optional ...",visitor2
intime,FNAME,LNAME,CTG,box,email,phone,address,city,state,zip,visitor2
1487540823,"christin ",morales,vs,0|3|5|10|18,josephrr2009@gmail.com,4247578579,"2017 lomita blvd",Lomita,CA,90717,visitor2
intime,FNAME,LNAME,CTG,box,email,address,city,state,zip,visitor2
1487456265,Charles,Ludlow,vs,3|4|5|13|14|17,charlesludlow@yahoo.com,"... optional ...","... optional ...","... optional ...","... optional ...",visitor2
intime,FNAME,LNAME,CTG,box,email,phone,city,state,zip,visitor2
1487451510,ban,alwardi,vs,1,balwardi32@hotmail.com,6263753644,"... optional ...","... optional ...","... optional ...",visitor2
intime,FNAME,LNAME,CTG,box,email,phone,city,state,zip,visitor2
1487360307,KRISTEL,SCHEUERMANN,vs,9|10|17,cita1030@gmail.com,3109899890,"... optional ...","... optional ...","... optional ...",visitor2
intime,FNAME,LNAME,CTG,box,email,phone,address,city,state,zip,visitor2
1487292760,silvia,rivas,vs,4,silvia_rivas@hotmail.com,3102421030,"... optional ...","... optional ...","... optional ...","... optional ...",visitor2
intime,FNAME,LNAME,CTG,box,email,phone,address,city,state,zip,visitor2
1487115783,test,test,vs,4,asdf,asdf,"... optional ...","... optional ...","... optional ...","... optional ...",visitor2
intime,FNAME,LNAME,CTG,visitor,box,sponsor,CompanyName,CompanyCity,CompanyWebsite,Notes,email,phone,address,city,state,zip,visitor2
1487115690,test,test,vs,visitor,0|1|2|3,sponsor,company,"company city",http:company,"this is a test",test@abc,321321321,"... optional ...","... optional ...","... optional ...","... optional ...",visitor2
intime,CTG,address,city,state,zip,visitor2
1487112325,vs,"... optional ...","... optional ...","... optional ...","... optional ...",visitor2
intime,CTG,address,city,state,zip,visitor2
1487112297,vs,"... optional ...","... optional ...","... optional ...","... optional ...",visitor2
intime,FNAME,LNAME,CTG,box,gender,address,city,state,zip,email,visitor2
1487034586,Athena,Perrez,vs,2|4|10,female,(optional),(optional),(optional),(optional),lilpants79@yahoo.com,visitor2
intime,FNAME,LNAME,CTG,box,address,city,state,zip,email,visitor2
1487027181,nick,donohue,vs,4|5|6|7|8|9|10|14|15,(optional),(optional),(optional),(optional),puanick57@yahoo.com,visitor2
intime,FNAME,LNAME,CTG,box,gender,address,city,state,zip,email,phone,visitor2
1486943944,Owen,Ryan,vs,0|3|4|5,male,(optional),(optional),(optional),(optional),owen_prs@yahoo.com,13104229405,visitor2
intime,FNAME,LNAME,CTG,box,address,city,state,zip,email,visitor2
1486938311,Joshelyn,Alfaro,vs,10,(optional),(optional),(optional),(optional),joshelyndlc@hotmail.com,visitor2
intime,FNAME,LNAME,CTG,box,gender,address,city,state,zip,email,phone,visitor2
1486874682,charlie,villegas,vs,0|1|3|4|5|8|9|10|15|17,male,"5342 sharynne ln",torrance,california,90501,ajsdaddy06457@yahoo.com,3107043925,visitor2
intime,FNAME,LNAME,CTG,box,gender,address,city,state,zip,email,phone,visitor2
1486868206,jani,lange,vs,1|4|5|9|10,male,(optional),(optional),(optional),(optional),jani.lange@gmail.com,310-464-7434,visitor2
intime,FNAME,LNAME,CTG,box,address,city,state,zip,email,visitor2
1486864624,Tammy,Zar,vs,4|5|6|7|8|9|15,(optional),(optional),(optional),(optional),tammyzar@yahoo.com,visitor2
intime,FNAME,LNAME,CTG,address,city,state,zip,email,visitor2
1486791250,Max,Mariscal,vs,(optional),(optional),(optional),(optional),max4mariscal,visitor2
intime,CTG,box,address,city,state,zip,visitor2
1486772818,vs,0|2|3|4,(optional),(optional),(optional),(optional),visitor2
intime,FNAME,LNAME,CTG,box,gender,address,city,state,zip,email,phone,visitor2
1486758663,jonathan,kaiser,vs,14|16|17,female,(optional),(optional),(optional),(optional),ohdarlinglisa@gmail.com,5203018605,visitor2
intime,FNAME,LNAME,CTG,box,gender,address,city,state,zip,email,phone,visitor2
1486754754,Sam,Sweetnam,vs,5|7|11|12|14|16,male,(optional),(optional),(optional),(optional),jon.kais@gmail.com,6026862851,visitor2
intime,FNAME,LNAME,CTG,box,address,city,state,zip,email,visitor2
1486602413,dondi,duffy,vs,1|4|5,(optional),(optional),(optional),(optional),dondiduff@mac.com,visitor2
intime,CTG,address,city,state,zip,visitor2
1486593212,vs,(optional),(optional),(optional),(optional),visitor2
intime,FNAME,LNAME,CTG,box,gender,address,city,state,zip,email,phone,visitor2
1486521443,Brian,Zhu,vs,11|18,male,(optional),(optional),(optional),(optional),"brian_zhu99@yahoo.com, wenjun_ruan@yahoo.com",3107506928,visitor2
intime,FNAME,LNAME,CTG,CLASSN
1486521395,Brian,Zhu,vs|s,"interest in volunteering"
intime,FNAME,LNAME,CTG,box,gender,address,city,state,zip,email,visitor2
1486416790,stella,uhm,vs,1|4|5|6|7|8|9|15,female,(optional),(optional),(optional),(optional),stellau@naver.com,visitor2
intime,CTG,address,city,state,zip,visitor2
1486413878,vs,(optional),(optional),(optional),(optional),visitor2
intime,FNAME,LNAME,CTG,box,gender,address,city,state,zip,email,phone,visitor2
1486259992,eduardo,yonamine,vs,0|1|3|4|5|8|10,male,(optional),(optional),(optional),(optional),eduardoyk77@gmail.com,3107489493,visitor2
intime,FNAME,LNAME,CTG,box,address,city,state,zip,email,visitor2
1486257199,Nicolle,Enrique,vs,0|10|13|14,(optional),(optional),(optional),(optional),neenrique@yahoo.com,visitor2
intime,FNAME,LNAME,CTG,box,address,city,state,zip,email,visitor2
1486255553,Sandra,Caryl,vs,17,(optional),(optional),(optional),(optional),sandra@tokilabvr.com,visitor2
intime,FNAME,LNAME,CTG,address,city,state,zip,email,visitor2
1486182488,David,Knotek,vs,(optional),(optional),(optional),(optional),david@smartwax.com,visitor2
intime,FNAME,CTG,box,address,city,state,zip,email,visitor2
1486085739,Westley,vs,0|1|2|3|4|5|6|7|8|9|11|12|13|14|15|16|17,(optional),"Rancho Palos Verdes",CA,90275,superzer0@mail.com,visitor2
intime,CTG,box,address,city,state,zip,visitor2
1486067795,vs,0|1|5|10|12|13|15|19,(optional),(optional),(optional),(optional),visitor2
intime,FNAME,LNAME,CTG,box,address,city,state,zip,email,visitor2
1485994644,Michael,Yu,vs,9,(optional),(optional),(optional),(optional),ymichael333@gmail.com,visitor2
intime,FNAME,LNAME,CTG,box,gender,age,address,email,visitor2
1485989157,Tim,Vogt,vs,7|9|10,male,56,"25202 Crenshaw Blvd",tokyotim@ix.netcom.com,visitor2
intime,FNAME,LNAME,CTG,box,gender,email,visitor2
1485920876,Lauren,Freeman,vs,8|9,female,littlelauren_91@yahoo.com,visitor2
intime,FNAME,LNAME,CTG,box,gender,age,address,city,state,zip,email,visitor2
1485728051,Nich,Smith,vs,5,male,26,"535 magnolia","long beach",ca,90802,Nichbern@gmail.com,visitor2
intime,FNAME,LNAME,CTG,box,email,visitor2
1485726226,john,baccarella,vs,5,jbaccarella@gmail.com,visitor2
intime,FNAME,LNAME,CTG,box,gender,email,phone,visitor2
1485642037,Rich,LaPorta,vs,1,male,richard.laporta@yahoo.com,"(310) 408-0773",visitor2
intime,FNAME,LNAME,CTG,box,gender,age,address,city,state,zip,email,phone,visitor2
1485641649,Marianne,Holm,vs,1,male,10,"4911 Rolling Meadows","Rolling Hills Estates",CA,90274,gregandmarianne@sbcglobal.net,310.982.9869,visitor2
intime,FNAME,LNAME,CTG,box,address,city,state,zip,email,phone,visitor2
1485625837,Steve,Ra,vs,4,"14800 S. San Pedro St.",Gardena,Ca,90248,swra122@sbcglobal.net,3103239630,visitor2
intime,FNAME,LNAME,CTG,box,gender,email,visitor2
1485579878,Luis,Gomez,vs,4|10|15,female,lagomez2003@yahoo.com,visitor2
intime,LNAME,CTG,gender,age,email,phone,visitor2
1485473211,baird,vs,female,56,bbaird832@gmail.com,3109441101,visitor2
intime,FNAME,LNAME,CTG,box,gender,age,address,city,state,zip,email,phone,visitor2
1485466555,SHEIDA,KASHANI,vs,0|1|9|10|11,male,12,"32 AVENIDA CORONA",RPV,CA,90275,SHEIDAK1@YAHOO.COM,3105219522,visitor2
intime,FNAME,LNAME,CTG,box,visitor2
1485212575,Allen,King,vs,11|16,visitor2
intime,FNAME,LNAME,CTG,gender,age,email,visitor2
1485204878,Keaton,Nishimi,vs,male,19,keat.nishimi@gmail.com,visitor2
intime,FNAME,LNAME,CTG,box,gender,age,email,visitor2
1485132932,mahesh,angadi,vs,0|1|4|10,male,10,maheshangadi90254@gmail.com,visitor2
intime,FNAME,LNAME,CTG,address,city,state,zip,email,phone,visitor2
1484862734,vibha,joshi,vs,"4363 miraleste dr","rancho npalos verdes",ca,90275,vibhashrestha2017@gmail.com,3102519452,visitor2
intime,FNAME,LNAME,CTG,box,gender,age,address,city,state,zip,phone,visitor2
1484849183,ed,shea,vs,18,male,61,"39 hastings Rd",Massapequa,NY,11758,516-PE3-1959,visitor2
intime,FNAME,LNAME,CTG,box,gender,age,address,city,state,zip,email,visitor2
1484848474,Ed,Shea,vs,9|16,male,61,"25 Via San Remo",rpv,ca,90275,edjshea@gmail.com,visitor2
intime,FNAME,LNAME,CTG,box,visitor2
1484701824,David,Gerard,vs,17,visitor2
