intime,FNAME,CTG,box,address,city,state,zip,visitor2,notes
1493064617,test,vs,0|1|2|3|4|5|6|7|8|9|10|11|12|13|14|15|16|17|18|19|20|21|22|23,"... optional ...","... optional ...","... optional ...","... optional ...",visitor2,notes
intime,FNAME,LNAME,CTG,box,email,phone,address,city,state,zip,Prospective0,GenderM0,Age0,visitor2,visitorstaffnotes,notes
1492993407,Ilene,Brown,vs,5|6|7|8|9|10|15,holdensbrown@gmail.com,310-951-8138,"... optional ...","... optional ...","... optional ...","... optional ...",evan,on,21,visitor2,spectrum,notes
intime,FNAME,LNAME,CTG,box,email,phone,address,city,state,zip,Prospective0,GenderM0,Age0,propemail0,visitor2,visitorstaffnotes,notes
1492467586,"Shiva ",Asrari,vs,5|6|7|8|9|11|12|15,sasrari@sbcglobal.net,734-645-3779,"... optional ...","... optional ...","... optional ...","... optional ...","Shayan Saadat",on,16,ShayanSaadat0@gmail,visitor2,"considering APCS",notes
intime,FNAME,LNAME,CTG,box,email,phone,address,city,state,zip,visitor2,notes
1492134833,Alonso,Osorio,vs,7|15,aosokal5@icloud.com,7025736722,"... optional ...","... optional ...","... optional ...","... optional ...",visitor2,notes
intime,FNAME,LNAME,CTG,box,email,phone,address,city,state,zip,Prospective0,GenderM0,visitor2,visitornotes,visitorstaffnotes,notes
1491106363,Elham,Tavabi,vs,5|6|7|9|10|15,Elmers11@hotmail.com,310-701-1416,"... optional ...","... optional ...","... optional ...","... optional ...",Kian,on,visitor2,Larchmont,"Mom teaches 1st grade at Larchmont",notes
intime,FNAME,LNAME,CTG,box,email,phone,address,city,state,zip,Prospective0,GenderM0,Age0,propemail0,visitor2,notes
1490902680,kelly,schmit,vs,1|5|6|7|15|17,kls4999@aol.com,3106293489,"... optional ...","... optional ...","... optional ...","... optional ...","Nick Schmit",on,15,nschmit2711@gmail.com,visitor2,notes
intime,FNAME,LNAME,CTG,box,email,phone,city,state,zip,visitor2,notes
1490415853,"jennifer ",castro,vs,1|3|4|5|8|9|10|14|15|16|17|20|21,jennycstrox3@gmail.com,4244776379,"... optional ...","... optional ...","... optional ...",visitor2,notes
intime,FNAME,LNAME,CTG,box,email,phone,city,state,zip,Prospective0,GenderF0,Age0,propemail0,visitor2,notes
1490403166,Hailey,Ivanson,vs,0|1|2|3|4|5|6|7|8|9|10|11|13|14|15|16|17|20,hcivanson@gmail.com,1(310)341-8333,"... optional ...","... optional ...","... optional ...","Hailey Ivanson",on,14,hcivanson@gmail.com,visitor2,notes
intime,FNAME,LNAME,CTG,box,email,phone,address,city,state,zip,Prospective0,GenderM0,visitor2,visitornotes,notes
1489896865,Azadeh,Khatibi,vs,0|1|2|4|5|6|7|8|9|15,eye.azadeh@gmail.com,"(510) 388-3404","... optional ...","... optional ...","... optional ...","... optional ...",Jahan,on,visitor2,"Rolling Robots, loves 3D game design, 3 D printing.  Interested in laser printing.",notes
intime,FNAME,LNAME,CTG,box,email,address,city,state,zip,Prospective0,GenderF0,Age0,visitor2,notes
1489457438,Zoe,Santoro,vs,1|4|5|6|8|9|13|14|15|16|17,zzoe12@gmail.com,"... optional ...","... optional ...","... optional ...","... optional ...","Zoe Santoro",on,17,visitor2,notes
intime,FNAME,LNAME,CTG,visitor,box,sponsor,CompanyName,CompanyCity,CompanyWebsite,email,phone,address,city,state,zip,visitor2,notes
1489202551,kevin,torf,vs,visitor,0|1|3|4|15|20,sponsor,"T2 Tech Group",Torrance,www.t2techgroup.com,kevintorf@gmail.com,424-212-8902,"... optional ...","... optional ...","... optional ...","... optional ...",visitor2,notes
intime,FNAME,LNAME,CTG,box,email,phone,address,city,state,zip,Prospective0,GenderM0,Age0,propemail0,Prospective1,GenderF1,propemail1,visitor2,notes
1489169961,marisa,checa,vs,1|2|3|6|9|10|13|15,mlcheca@gmail.com,310-977-7872,"... optional ...","... optional ...","... optional ...","... optional ...","Alex Ambite",on,10,mlcheca@gmail.com,"Sara Ambite",on,mlcheca@gmail.com,visitor2,notes
intime,FNAME,LNAME,CTG,box,email,phone,city,state,zip,Prospective0,GenderF0,Age0,propemail0,visitor2,notes
1488934729,karie,shehadey,vs,0|1|2|3|4|5|6|7|8|9|10|11|12|13|14|15|16|17,madsoph825@gmail.com,3109720015,"... optional ...","... optional ...","... optional ...","maddie shehadey",on,10,madsoph825@gmail.com,visitor2,notes
intime,FNAME,LNAME,CTG,box,email,phone,address,city,state,zip,Prospective0,GenderF0,propemail0,visitor2,visitornotes,notes
1488934652,Heather,Fleming,vs,0|1|2|3|4|5|6|7|8|9|10|11|12|13|14|15|16|17|22,hfleming48@gmail.com,"310 487 2051","... optional ...","... optional ...","... optional ...","... optional ...",Nova,on,hfleming48@gmail.com,visitor2,"Thank you!",notes
intime,FNAME,LNAME,CTG,box,email,phone,address,city,state,zip,Prospective0,GenderM0,visitor2,notes
1488910555,Xochilt,Jimenez,vs,0|1|2|3|4|5|7|10|15,Xochiltjimenez200713@gmail.com,4083100664,"... optional ...","... optional ...","... optional ...","... optional ...","Nathan Jacob Jimenez",on,visitor2,notes
intime,FNAME,LNAME,CTG,box,email,address,city,state,zip,Prospective0,GenderM0,Age0,Prospective1,GenderM1,Age1,visitor2,notes
1488604545,Laura,Witten,vs,0|1|3|4|5|8|15|16,laura8900@gmail.com,"... optional ...","... optional ...","... optional ...","... optional ...","AJ ",on,10,Joseph,on,12,visitor2,notes
intime,CTG,box,address,city,state,zip,visitor2,notes
1488590523,vs,12|13|14|15|16|17|18|19|20|21|22|23,"... optional ...","... optional ...","... optional ...","... optional ...",visitor2,notes
intime,FNAME,LNAME,CTG,box,email,phone,address,city,state,zip,visitor2,notes
1488409355,Owen,Liebenberg,vs,1|5|6|11|12|13|15|17,owen.liebenberg@gmail.com,(310)857-9209,"... optional ...","... optional ...","... optional ...","... optional ...",visitor2,notes
intime,FNAME,LNAME,CTG,box,email,address,city,state,zip,visitor2,notes
1488327081,Emilly,Ortega,vs,15|16,savannah.ortega52@yahoo.com,"... optional ...","... optional ...","... optional ...","... optional ...",visitor2,notes
intime,FNAME,LNAME,CTG,box,email,phone,address,city,state,zip,Prospective0,GenderM0,Age0,propemail0,visitor2,notes
1488069847,Aaron,Morris,vs,0|1|2|4|5|8|9|10|15,aaron.morris@mac.com,5126580190,"2508 Via Pinale","Palos Verdes Estates",CA,90274,Grayson,on,11,Gamorris@gmail.com,visitor2,notes
intime,FNAME,LNAME,CTG,box,email,address,city,state,zip,Prospective0,GenderM0,visitor2,notes
1488056370,alex,portet,vs,0|1|2|3|4|15,alex.portet@hotmail.com,"... optional ...","... optional ...","... optional ...","... optional ...",Luca,on,visitor2,notes
intime,FNAME,LNAME,CTG,box,email,phone,city,state,zip,visitor2,notes
1487898090,michael,destephen,vs,1|2|3|4|5|6|7|8|9|11|12|13|14|15|17,michaeldestephen@yahoo.com,3102932915,"... optional ...",CA,90274,visitor2,notes
intime,FNAME,LNAME,CTG,box,address,city,state,zip,email,visitor2
1487027181,nick,donohue,vs,4|5|6|7|8|9|10|14|15,(optional),(optional),(optional),(optional),puanick57@yahoo.com,visitor2
intime,FNAME,LNAME,CTG,box,gender,address,city,state,zip,email,phone,visitor2
1486874682,charlie,villegas,vs,0|1|3|4|5|8|9|10|15|17,male,"5342 sharynne ln",torrance,california,90501,ajsdaddy06457@yahoo.com,3107043925,visitor2
intime,FNAME,LNAME,CTG,box,address,city,state,zip,email,visitor2
1486864624,Tammy,Zar,vs,4|5|6|7|8|9|15,(optional),(optional),(optional),(optional),tammyzar@yahoo.com,visitor2
intime,FNAME,LNAME,CTG,box,gender,address,city,state,zip,email,visitor2
1486416790,stella,uhm,vs,1|4|5|6|7|8|9|15,female,(optional),(optional),(optional),(optional),stellau@naver.com,visitor2
intime,FNAME,CTG,box,address,city,state,zip,email,visitor2
1486085739,Westley,vs,0|1|2|3|4|5|6|7|8|9|11|12|13|14|15|16|17,(optional),"Rancho Palos Verdes",CA,90275,superzer0@mail.com,visitor2
intime,CTG,box,address,city,state,zip,visitor2
1486067795,vs,0|1|5|10|12|13|15|19,(optional),(optional),(optional),(optional),visitor2
intime,FNAME,LNAME,CTG,box,gender,email,visitor2
1485579878,Luis,Gomez,vs,4|10|15,female,lagomez2003@yahoo.com,visitor2
