intime,FNAME,CTG,box,address,city,state,zip,visitor2,notes
1493064617,test,vs,0|1|2|3|4|5|6|7|8|9|10|11|12|13|14|15|16|17|18|19|20|21|22|23,"... optional ...","... optional ...","... optional ...","... optional ...",visitor2,notes
intime,FNAME,LNAME,CTG,box,email,phone,address,city,state,zip,visitor2,notes
1492915059,Alice,Raab,vs,0|1|4|9|11|12|16,alice.raab.bravo@gmail.com,3107292602,"... optional ...","... optional ...","... optional ...","... optional ...",visitor2,notes
intime,FNAME,LNAME,CTG,box,email,phone,address,city,state,zip,Prospective0,GenderM0,Age0,visitor2,visitornotes,notes
1492814084,Sheila,Anderson,vs,0|1|4|5|6|7|8|9|10,sfa0277@gmail.com,310-374-0551,"... optional ...","... optional ...","... optional ...","... optional ...",Liam,on,13,visitor2,"Margaret Mary in Lomita",notes
intime,FNAME,LNAME,CTG,box,email,phone,city,state,zip,Prospective0,GenderF0,Age0,propemail0,visitor2,notes
1490403166,Hailey,Ivanson,vs,0|1|2|3|4|5|6|7|8|9|10|11|13|14|15|16|17|20,hcivanson@gmail.com,1(310)341-8333,"... optional ...","... optional ...","... optional ...","Hailey Ivanson",on,14,hcivanson@gmail.com,visitor2,notes
intime,FNAME,LNAME,CTG,box,email,phone,address,city,state,zip,Prospective0,GenderM0,visitor2,visitornotes,notes
1489896865,Azadeh,Khatibi,vs,0|1|2|4|5|6|7|8|9|15,eye.azadeh@gmail.com,"(510) 388-3404","... optional ...","... optional ...","... optional ...","... optional ...",Jahan,on,visitor2,"Rolling Robots, loves 3D game design, 3 D printing.  Interested in laser printing.",notes
intime,FNAME,LNAME,CTG,visitor,box,sponsor,CompanyName,CompanyCity,CompanyWebsite,email,phone,address,city,state,zip,visitor2,notes
1489202551,kevin,torf,vs,visitor,0|1|3|4|15|20,sponsor,"T2 Tech Group",Torrance,www.t2techgroup.com,kevintorf@gmail.com,424-212-8902,"... optional ...","... optional ...","... optional ...","... optional ...",visitor2,notes
intime,FNAME,LNAME,CTG,box,email,phone,city,state,zip,Prospective0,GenderF0,Age0,propemail0,visitor2,notes
1488934729,karie,shehadey,vs,0|1|2|3|4|5|6|7|8|9|10|11|12|13|14|15|16|17,madsoph825@gmail.com,3109720015,"... optional ...","... optional ...","... optional ...","maddie shehadey",on,10,madsoph825@gmail.com,visitor2,notes
intime,FNAME,LNAME,CTG,box,email,phone,address,city,state,zip,Prospective0,GenderF0,propemail0,visitor2,visitornotes,notes
1488934652,Heather,Fleming,vs,0|1|2|3|4|5|6|7|8|9|10|11|12|13|14|15|16|17|22,hfleming48@gmail.com,"310 487 2051","... optional ...","... optional ...","... optional ...","... optional ...",Nova,on,hfleming48@gmail.com,visitor2,"Thank you!",notes
intime,FNAME,LNAME,CTG,box,email,phone,address,city,state,zip,Prospective0,GenderM0,visitor2,notes
1488910555,Xochilt,Jimenez,vs,0|1|2|3|4|5|7|10|15,Xochiltjimenez200713@gmail.com,4083100664,"... optional ...","... optional ...","... optional ...","... optional ...","Nathan Jacob Jimenez",on,visitor2,notes
intime,FNAME,LNAME,CTG,box,email,address,city,state,zip,Prospective0,GenderM0,Age0,Prospective1,GenderM1,Age1,visitor2,notes
1488604545,Laura,Witten,vs,0|1|3|4|5|8|15|16,laura8900@gmail.com,"... optional ...","... optional ...","... optional ...","... optional ...","AJ ",on,10,Joseph,on,12,visitor2,notes
intime,FNAME,LNAME,CTG,box,email,phone,city,state,zip,visitor2,notes
1488232121,Jeff,Watson,vs,0|1|3|4,jeffwatso@gmail.com,8189271122,"... optional ...","... optional ...","... optional ...",visitor2,notes
intime,FNAME,LNAME,CTG,box,email,phone,address,city,state,zip,Prospective0,GenderM0,Age0,propemail0,visitor2,notes
1488069847,Aaron,Morris,vs,0|1|2|4|5|8|9|10|15,aaron.morris@mac.com,5126580190,"2508 Via Pinale","Palos Verdes Estates",CA,90274,Grayson,on,11,Gamorris@gmail.com,visitor2,notes
intime,FNAME,LNAME,CTG,box,email,address,city,state,zip,Prospective0,GenderM0,visitor2,notes
1488056370,alex,portet,vs,0|1|2|3|4|15,alex.portet@hotmail.com,"... optional ...","... optional ...","... optional ...","... optional ...",Luca,on,visitor2,notes
intime,FNAME,LNAME,CTG,box,email,phone,address,city,state,zip,Prospective0,GenderM0,Age0,visitor2,notes
1487994675,chris,mone,vs,0|1|4|9|10,cmmone5@gmail.com,3109168791,"... optional ...","... optional ...","... optional ...","... optional ...","Austin Mone",on,13,visitor2,notes
intime,FNAME,LNAME,CTG,box,email,phone,city,state,zip,Prospective0,GenderM0,propemail0,visitor2,notes
1487982459,Latrice,Allen,vs,0|1|2|3|8|9|10,lallenmd@gmail.com,3109014977,"... optional ...","... optional ...","... optional ...","Noah Shepherd",on,lallenmd@gmail.com,visitor2,notes
intime,FNAME,LNAME,CTG,visitor,box,sponsor,CompanyName,CompanyCity,CompanyWebsite,Notes,email,phone,address,city,state,zip,Prospective0,GenderM0,propemail0,visitor2,visitornotes,visitorstaffnotes,notes
1487800264,test,test,vs,visitor,0|1|2,sponsor,test,test,test,test,guardianemail,guardianphone,"... optional ...","... optional ...","... optional ...","... optional ...",studentname,on,11,visitor2,"this is a note area meant for staff members","this is a note area meant for staff members",notes
intime,FNAME,LNAME,CTG,box,email,address,city,state,zip,visitor2
1487639300,Iris,Zelaya,vs,0|4|6|7|8|9|10|14,zelaya_iris@ymail.com,"... optional ...","... optional ...","... optional ...","... optional ...",visitor2
intime,FNAME,LNAME,CTG,box,email,phone,address,city,state,zip,visitor2
1487540823,"christin ",morales,vs,0|3|5|10|18,josephrr2009@gmail.com,4247578579,"2017 lomita blvd",Lomita,CA,90717,visitor2
intime,FNAME,LNAME,CTG,visitor,box,sponsor,CompanyName,CompanyCity,CompanyWebsite,Notes,email,phone,address,city,state,zip,visitor2
1487115690,test,test,vs,visitor,0|1|2|3,sponsor,company,"company city",http:company,"this is a test",test@abc,321321321,"... optional ...","... optional ...","... optional ...","... optional ...",visitor2
intime,FNAME,LNAME,CTG,box,gender,address,city,state,zip,email,phone,visitor2
1486943944,Owen,Ryan,vs,0|3|4|5,male,(optional),(optional),(optional),(optional),owen_prs@yahoo.com,13104229405,visitor2
intime,FNAME,LNAME,CTG,box,gender,address,city,state,zip,email,phone,visitor2
1486874682,charlie,villegas,vs,0|1|3|4|5|8|9|10|15|17,male,"5342 sharynne ln",torrance,california,90501,ajsdaddy06457@yahoo.com,3107043925,visitor2
intime,CTG,box,address,city,state,zip,visitor2
1486772818,vs,0|2|3|4,(optional),(optional),(optional),(optional),visitor2
intime,FNAME,LNAME,CTG,box,gender,address,city,state,zip,email,phone,visitor2
1486259992,eduardo,yonamine,vs,0|1|3|4|5|8|10,male,(optional),(optional),(optional),(optional),eduardoyk77@gmail.com,3107489493,visitor2
intime,FNAME,LNAME,CTG,box,address,city,state,zip,email,visitor2
1486257199,Nicolle,Enrique,vs,0|10|13|14,(optional),(optional),(optional),(optional),neenrique@yahoo.com,visitor2
intime,FNAME,CTG,box,address,city,state,zip,email,visitor2
1486085739,Westley,vs,0|1|2|3|4|5|6|7|8|9|11|12|13|14|15|16|17,(optional),"Rancho Palos Verdes",CA,90275,superzer0@mail.com,visitor2
intime,CTG,box,address,city,state,zip,visitor2
1486067795,vs,0|1|5|10|12|13|15|19,(optional),(optional),(optional),(optional),visitor2
intime,FNAME,LNAME,CTG,box,gender,age,address,city,state,zip,email,phone,visitor2
1485466555,SHEIDA,KASHANI,vs,0|1|9|10|11,male,12,"32 AVENIDA CORONA",RPV,CA,90275,SHEIDAK1@YAHOO.COM,3105219522,visitor2
intime,FNAME,LNAME,CTG,box,gender,age,email,visitor2
1485132932,mahesh,angadi,vs,0|1|4|10,male,10,maheshangadi90254@gmail.com,visitor2
