intime,FNAME,CTG,box,address,city,state,zip,visitor2,notes
1493064617,test,vs,0|1|2|3|4|5|6|7|8|9|10|11|12|13|14|15|16|17|18|19|20|21|22|23,"... optional ...","... optional ...","... optional ...","... optional ...",visitor2,notes
intime,FNAME,LNAME,CTG,box,email,phone,address,city,state,zip,visitor2,visitornotes,notes
1492299552,Melissa,Audain,vs,1|3|14|23,melissakmc02@gmail.com,424-237-6202,"... optional ...","... optional ...","... optional ...","... optional ...",visitor2,"Student: Amaya Audain, 10 y/o ",notes
intime,FNAME,LNAME,CTG,box,email,phone,address,city,state,zip,Prospective0,GenderM0,propemail0,Prospective1,GenderF1,propemail1,visitor2,notes
1491863630,susan,kim,vs,1|3|10,susanjmkim@yahoo.com,2135052850,"... optional ...","... optional ...","... optional ...","... optional ...","Connor Kim",on,susanjmkim@yahoo.com,"Taylor Kim",on,susanjmkim@yahoo.com,visitor2,notes
intime,FNAME,LNAME,CTG,box,email,phone,city,state,zip,visitor2,notes
1490415853,"jennifer ",castro,vs,1|3|4|5|8|9|10|14|15|16|17|20|21,jennycstrox3@gmail.com,4244776379,"... optional ...","... optional ...","... optional ...",visitor2,notes
intime,FNAME,LNAME,CTG,box,email,phone,city,state,zip,Prospective0,GenderF0,Age0,propemail0,visitor2,notes
1490403166,Hailey,Ivanson,vs,0|1|2|3|4|5|6|7|8|9|10|11|13|14|15|16|17|20,hcivanson@gmail.com,1(310)341-8333,"... optional ...","... optional ...","... optional ...","Hailey Ivanson",on,14,hcivanson@gmail.com,visitor2,notes
intime,FNAME,LNAME,CTG,box,email,phone,address,city,state,zip,Prospective0,GenderM0,Age0,propemail0,visitor2,visitornotes,notes
1490118884,"Nancy K",Brigden,vs,3|5|10|17,nkbrigden@gmail.com,"310 245-4975","... optional ...","... optional ...","... optional ...","... optional ...","John A Gastanaga",on,12,jagman329@gmail.com,visitor2,"John wants to build a computer.  (for gaming, with transparent walls, etc.......lots of ideas!)",notes
intime,FNAME,LNAME,CTG,box,email,phone,address,city,state,zip,Prospective0,GenderM0,Prospective1,GenderM1,Age1,Prospective2,GenderM2,Age2,visitor2,notes
1489810146,Adei,Getachew,vs,1|2|3|5|10|11|13,adeigetachew@gmail.com,"310 864-2497","... optional ...","... optional ...","... optional ...","... optional ...","Ezekiel Simon-Thompson",on,"Aman Stevenson",on,13,"Zion Clark",on,15,visitor2,notes
intime,FNAME,LNAME,CTG,box,email,phone,address,city,state,zip,Prospective0,GenderM0,visitor2,notes
1489810059,Banchirga,Kebede,vs,1|2|3|5|10|11|13,banchirga@gmail.com,"310 930-8794","... optional ...","... optional ...","... optional ...","... optional ...",Gebriel,on,visitor2,notes
intime,FNAME,LNAME,CTG,box,email,phone,address,city,state,zip,Prospective0,GenderM0,propemail0,visitor2,notes
1489797598,nic,brae,vs,3|5|9|10,nikkinaya@yahoo.com,3106262466,"... optional ...","... optional ...","... optional ...","... optional ...","nic brae",on,nikkinaya@yahoo.com,visitor2,notes
intime,FNAME,LNAME,CTG,box,email,phone,address,city,state,zip,Prospective0,GenderM0,propemail0,visitor2,notes
1489443548,"Catherine ","Lo Iacono",vs,1|2|3|4|5|10|13|14|20,catherine.loiacono@yahoo.com,"424 201 9415","... optional ...","... optional ...","... optional ...","... optional ...","Daniele Lo Iacono",on,catherine.loiacono@yahoo.com,visitor2,notes
intime,FNAME,LNAME,CTG,visitor,box,sponsor,CompanyName,CompanyCity,CompanyWebsite,email,phone,address,city,state,zip,visitor2,notes
1489202551,kevin,torf,vs,visitor,0|1|3|4|15|20,sponsor,"T2 Tech Group",Torrance,www.t2techgroup.com,kevintorf@gmail.com,424-212-8902,"... optional ...","... optional ...","... optional ...","... optional ...",visitor2,notes
intime,FNAME,LNAME,CTG,box,email,phone,address,city,state,zip,Prospective0,GenderM0,Age0,propemail0,Prospective1,GenderF1,propemail1,visitor2,notes
1489169961,marisa,checa,vs,1|2|3|6|9|10|13|15,mlcheca@gmail.com,310-977-7872,"... optional ...","... optional ...","... optional ...","... optional ...","Alex Ambite",on,10,mlcheca@gmail.com,"Sara Ambite",on,mlcheca@gmail.com,visitor2,notes
intime,FNAME,LNAME,CTG,box,email,phone,city,state,zip,Prospective0,GenderF0,Age0,propemail0,visitor2,notes
1488934729,karie,shehadey,vs,0|1|2|3|4|5|6|7|8|9|10|11|12|13|14|15|16|17,madsoph825@gmail.com,3109720015,"... optional ...","... optional ...","... optional ...","maddie shehadey",on,10,madsoph825@gmail.com,visitor2,notes
intime,FNAME,LNAME,CTG,box,email,phone,address,city,state,zip,Prospective0,GenderF0,propemail0,visitor2,visitornotes,notes
1488934652,Heather,Fleming,vs,0|1|2|3|4|5|6|7|8|9|10|11|12|13|14|15|16|17|22,hfleming48@gmail.com,"310 487 2051","... optional ...","... optional ...","... optional ...","... optional ...",Nova,on,hfleming48@gmail.com,visitor2,"Thank you!",notes
intime,FNAME,LNAME,CTG,box,email,phone,address,city,state,zip,Prospective0,GenderM0,visitor2,notes
1488910555,Xochilt,Jimenez,vs,0|1|2|3|4|5|7|10|15,Xochiltjimenez200713@gmail.com,4083100664,"... optional ...","... optional ...","... optional ...","... optional ...","Nathan Jacob Jimenez",on,visitor2,notes
intime,FNAME,LNAME,CTG,box,email,phone,address,city,state,zip,Prospective0,GenderM0,propemail0,visitor2,notes
1488687373,LORENZO,ABEYTA,vs,1|2|3|5|10|20,altkings@sbcglobal.net,310-326-8151,"26011 Oakbay Road",Torrance,CA,90505,Jonah,on,altkings@sbcglobal.net,visitor2,notes
intime,FNAME,LNAME,CTG,box,email,address,city,state,zip,Prospective0,GenderM0,Age0,Prospective1,GenderM1,Age1,visitor2,notes
1488604545,Laura,Witten,vs,0|1|3|4|5|8|15|16,laura8900@gmail.com,"... optional ...","... optional ...","... optional ...","... optional ...","AJ ",on,10,Joseph,on,12,visitor2,notes
intime,FNAME,LNAME,CTG,box,email,phone,city,state,zip,visitor2,notes
1488232121,Jeff,Watson,vs,0|1|3|4,jeffwatso@gmail.com,8189271122,"... optional ...","... optional ...","... optional ...",visitor2,notes
intime,FNAME,LNAME,CTG,box,email,address,city,state,zip,Prospective0,GenderM0,visitor2,notes
1488056370,alex,portet,vs,0|1|2|3|4|15,alex.portet@hotmail.com,"... optional ...","... optional ...","... optional ...","... optional ...",Luca,on,visitor2,notes
intime,FNAME,LNAME,CTG,box,email,phone,address,city,state,zip,Prospective0,GenderF0,Age0,propemail0,visitor2,notes
1487992146,Kim,Crocker,vs,3|4|5|11|13|14|16|17|18,kimcrocker@comcast.net,301275-4416,"3805 Crestway Place","Los Angeles",Ca,90043,"Brooke Crocker",on,14,4louise2@gmail.com,visitor2,notes
intime,FNAME,LNAME,CTG,box,email,phone,city,state,zip,Prospective0,GenderM0,propemail0,visitor2,notes
1487982459,Latrice,Allen,vs,0|1|2|3|8|9|10,lallenmd@gmail.com,3109014977,"... optional ...","... optional ...","... optional ...","Noah Shepherd",on,lallenmd@gmail.com,visitor2,notes
intime,FNAME,LNAME,CTG,box,email,phone,city,state,zip,visitor2,notes
1487898090,michael,destephen,vs,1|2|3|4|5|6|7|8|9|11|12|13|14|15|17,michaeldestephen@yahoo.com,3102932915,"... optional ...",CA,90274,visitor2,notes
intime,FNAME,LNAME,CTG,box,email,phone,address,city,state,zip,visitor2
1487540823,"christin ",morales,vs,0|3|5|10|18,josephrr2009@gmail.com,4247578579,"2017 lomita blvd",Lomita,CA,90717,visitor2
intime,FNAME,LNAME,CTG,box,email,address,city,state,zip,visitor2
1487456265,Charles,Ludlow,vs,3|4|5|13|14|17,charlesludlow@yahoo.com,"... optional ...","... optional ...","... optional ...","... optional ...",visitor2
intime,FNAME,LNAME,CTG,visitor,box,sponsor,CompanyName,CompanyCity,CompanyWebsite,Notes,email,phone,address,city,state,zip,visitor2
1487115690,test,test,vs,visitor,0|1|2|3,sponsor,company,"company city",http:company,"this is a test",test@abc,321321321,"... optional ...","... optional ...","... optional ...","... optional ...",visitor2
intime,FNAME,LNAME,CTG,box,gender,address,city,state,zip,email,phone,visitor2
1486943944,Owen,Ryan,vs,0|3|4|5,male,(optional),(optional),(optional),(optional),owen_prs@yahoo.com,13104229405,visitor2
intime,FNAME,LNAME,CTG,box,gender,address,city,state,zip,email,phone,visitor2
1486874682,charlie,villegas,vs,0|1|3|4|5|8|9|10|15|17,male,"5342 sharynne ln",torrance,california,90501,ajsdaddy06457@yahoo.com,3107043925,visitor2
intime,CTG,box,address,city,state,zip,visitor2
1486772818,vs,0|2|3|4,(optional),(optional),(optional),(optional),visitor2
intime,FNAME,LNAME,CTG,box,gender,address,city,state,zip,email,phone,visitor2
1486259992,eduardo,yonamine,vs,0|1|3|4|5|8|10,male,(optional),(optional),(optional),(optional),eduardoyk77@gmail.com,3107489493,visitor2
intime,FNAME,CTG,box,address,city,state,zip,email,visitor2
1486085739,Westley,vs,0|1|2|3|4|5|6|7|8|9|11|12|13|14|15|16|17,(optional),"Rancho Palos Verdes",CA,90275,superzer0@mail.com,visitor2
