intime,FNAME,CTG,box,address,city,state,zip,visitor2,notes
1493064617,test,vs,0|1|2|3|4|5|6|7|8|9|10|11|12|13|14|15|16|17|18|19|20|21|22|23,"... optional ...","... optional ...","... optional ...","... optional ...",visitor2,notes
intime,FNAME,LNAME,CTG,box,email,phone,address,city,state,zip,Prospective0,GenderM0,Age0,visitor2,visitorstaffnotes,notes
1492993407,Ilene,Brown,vs,5|6|7|8|9|10|15,holdensbrown@gmail.com,310-951-8138,"... optional ...","... optional ...","... optional ...","... optional ...",evan,on,21,visitor2,spectrum,notes
intime,FNAME,LNAME,CTG,box,email,phone,address,city,state,zip,visitor2,visitornotes,notes
1492887640,matt,shores,vs,5|22,matt@emptyclipstudios.com,415-505-9871,"609 Deep Valley Dr#200","Rolling Hills Estates",CA,90274,visitor2,"Volunteer, CEO of Empty Clip Studios, Game Designer",notes
intime,FNAME,LNAME,CTG,box,email,phone,address,city,state,zip,Prospective0,GenderF0,Age0,propemail0,visitor2,notes
1492827979,MARK,SARNI,vs,4|5|10|14|16|20,SOUTHBAYADR@GMAIL.COM,310-486-0817,"... optional ...","... optional ...","... optional ...","... optional ...",KARMA,on,12,SOUTHBAYADR@GMAIL.COM,visitor2,notes
intime,FNAME,LNAME,CTG,box,email,phone,address,city,state,zip,Prospective0,GenderM0,Age0,visitor2,visitornotes,notes
1492814084,Sheila,Anderson,vs,0|1|4|5|6|7|8|9|10,sfa0277@gmail.com,310-374-0551,"... optional ...","... optional ...","... optional ...","... optional ...",Liam,on,13,visitor2,"Margaret Mary in Lomita",notes
intime,FNAME,LNAME,CTG,box,email,phone,address,city,state,zip,Prospective0,GenderM0,Age0,propemail0,visitor2,visitorstaffnotes,notes
1492467586,"Shiva ",Asrari,vs,5|6|7|8|9|11|12|15,sasrari@sbcglobal.net,734-645-3779,"... optional ...","... optional ...","... optional ...","... optional ...","Shayan Saadat",on,16,ShayanSaadat0@gmail,visitor2,"considering APCS",notes
intime,FNAME,LNAME,CTG,box,email,phone,address,city,state,zip,visitor2,visitornotes,notes
1492208046,Alex,Medina,vs,5|10|13|14|20,Billyrui93@gmail.com,310.213.5041,"... optional ...","... optional ...","... optional ...","... optional ...",visitor2,"Checking programs that are offered.",notes
intime,FNAME,LNAME,CTG,box,email,phone,address,city,state,zip,Prospective0,GenderM0,visitor2,visitornotes,visitorstaffnotes,notes
1491106363,Elham,Tavabi,vs,5|6|7|9|10|15,Elmers11@hotmail.com,310-701-1416,"... optional ...","... optional ...","... optional ...","... optional ...",Kian,on,visitor2,Larchmont,"Mom teaches 1st grade at Larchmont",notes
intime,FNAME,LNAME,CTG,box,email,phone,address,city,state,zip,Prospective0,GenderM0,Age0,propemail0,visitor2,notes
1490902680,kelly,schmit,vs,1|5|6|7|15|17,kls4999@aol.com,3106293489,"... optional ...","... optional ...","... optional ...","... optional ...","Nick Schmit",on,15,nschmit2711@gmail.com,visitor2,notes
intime,FNAME,LNAME,CTG,box,email,phone,city,state,zip,visitor2,notes
1490415853,"jennifer ",castro,vs,1|3|4|5|8|9|10|14|15|16|17|20|21,jennycstrox3@gmail.com,4244776379,"... optional ...","... optional ...","... optional ...",visitor2,notes
intime,FNAME,LNAME,CTG,box,email,phone,city,state,zip,Prospective0,GenderF0,Age0,propemail0,visitor2,notes
1490403166,Hailey,Ivanson,vs,0|1|2|3|4|5|6|7|8|9|10|11|13|14|15|16|17|20,hcivanson@gmail.com,1(310)341-8333,"... optional ...","... optional ...","... optional ...","Hailey Ivanson",on,14,hcivanson@gmail.com,visitor2,notes
intime,FNAME,LNAME,CTG,box,email,phone,address,city,state,zip,visitor2,visitornotes,notes
1490396974,Suzanne,Amaira,vs,1|2|4|5|10|14,umm.noor@gmail.com,4242503650,"... optional ...","... optional ...","... optional ...","... optional ...",visitor2,"My kids are currently homeschooled.",notes
intime,FNAME,LNAME,CTG,box,email,phone,address,city,state,zip,Prospective0,GenderM0,Age0,propemail0,visitor2,visitornotes,notes
1490118884,"Nancy K",Brigden,vs,3|5|10|17,nkbrigden@gmail.com,"310 245-4975","... optional ...","... optional ...","... optional ...","... optional ...","John A Gastanaga",on,12,jagman329@gmail.com,visitor2,"John wants to build a computer.  (for gaming, with transparent walls, etc.......lots of ideas!)",notes
intime,FNAME,LNAME,CTG,box,email,phone,address,city,state,zip,Prospective0,GenderM0,visitor2,visitornotes,notes
1489896865,Azadeh,Khatibi,vs,0|1|2|4|5|6|7|8|9|15,eye.azadeh@gmail.com,"(510) 388-3404","... optional ...","... optional ...","... optional ...","... optional ...",Jahan,on,visitor2,"Rolling Robots, loves 3D game design, 3 D printing.  Interested in laser printing.",notes
intime,FNAME,LNAME,CTG,box,email,phone,address,city,state,zip,Prospective0,GenderM0,Prospective1,GenderM1,Age1,Prospective2,GenderM2,Age2,visitor2,notes
1489810146,Adei,Getachew,vs,1|2|3|5|10|11|13,adeigetachew@gmail.com,"310 864-2497","... optional ...","... optional ...","... optional ...","... optional ...","Ezekiel Simon-Thompson",on,"Aman Stevenson",on,13,"Zion Clark",on,15,visitor2,notes
intime,FNAME,LNAME,CTG,box,email,phone,address,city,state,zip,Prospective0,GenderM0,visitor2,notes
1489810059,Banchirga,Kebede,vs,1|2|3|5|10|11|13,banchirga@gmail.com,"310 930-8794","... optional ...","... optional ...","... optional ...","... optional ...",Gebriel,on,visitor2,notes
intime,FNAME,LNAME,CTG,box,email,phone,address,city,state,zip,Prospective0,GenderM0,propemail0,visitor2,notes
1489797598,nic,brae,vs,3|5|9|10,nikkinaya@yahoo.com,3106262466,"... optional ...","... optional ...","... optional ...","... optional ...","nic brae",on,nikkinaya@yahoo.com,visitor2,notes
intime,FNAME,LNAME,CTG,box,email,address,city,state,zip,Prospective0,GenderF0,Age0,visitor2,notes
1489457438,Zoe,Santoro,vs,1|4|5|6|8|9|13|14|15|16|17,zzoe12@gmail.com,"... optional ...","... optional ...","... optional ...","... optional ...","Zoe Santoro",on,17,visitor2,notes
intime,FNAME,LNAME,CTG,box,email,address,city,state,zip,Prospective0,GenderM0,visitor2,notes
1489454066,TIJANA,TRIPALO,vs,5|6|7|8|9|10,TIXON74@GMAIL.COM,"... optional ...","... optional ...","... optional ...","... optional ...",KOSTA,on,visitor2,notes
intime,FNAME,LNAME,CTG,box,email,phone,address,city,state,zip,Prospective0,GenderM0,propemail0,visitor2,notes
1489443548,"Catherine ","Lo Iacono",vs,1|2|3|4|5|10|13|14|20,catherine.loiacono@yahoo.com,"424 201 9415","... optional ...","... optional ...","... optional ...","... optional ...","Daniele Lo Iacono",on,catherine.loiacono@yahoo.com,visitor2,notes
intime,FNAME,LNAME,CTG,box,email,phone,address,city,state,zip,Prospective0,GenderM0,visitor2,visitornotes,notes
1489280988,claudia,navarro,vs,5|6|7|8|9,cnavarro037@yahoo.com,310-9408063,"3720 emerald st #v2",torrance,ca,90503,daniel,on,visitor2,"uncle is a councelor at el camino collegue",notes
intime,FNAME,LNAME,CTG,box,email,address,city,state,zip,Prospective0,GenderM0,visitor2,visitornotes,notes
1489106591,Tamami,Kamiya,vs,5|6|7|8|9|10,tkamiya2@socal.rr.com,"... optional ...","... optional ...","... optional ...","... optional ...",Sora,on,visitor2,"Likes game design!!!",notes
intime,FNAME,LNAME,CTG,box,email,phone,city,state,zip,Prospective0,GenderF0,Age0,propemail0,visitor2,notes
1488934729,karie,shehadey,vs,0|1|2|3|4|5|6|7|8|9|10|11|12|13|14|15|16|17,madsoph825@gmail.com,3109720015,"... optional ...","... optional ...","... optional ...","maddie shehadey",on,10,madsoph825@gmail.com,visitor2,notes
intime,FNAME,LNAME,CTG,box,email,phone,address,city,state,zip,Prospective0,GenderF0,propemail0,visitor2,visitornotes,notes
1488934652,Heather,Fleming,vs,0|1|2|3|4|5|6|7|8|9|10|11|12|13|14|15|16|17|22,hfleming48@gmail.com,"310 487 2051","... optional ...","... optional ...","... optional ...","... optional ...",Nova,on,hfleming48@gmail.com,visitor2,"Thank you!",notes
intime,FNAME,LNAME,CTG,box,email,phone,address,city,state,zip,Prospective0,GenderM0,visitor2,notes
1488910555,Xochilt,Jimenez,vs,0|1|2|3|4|5|7|10|15,Xochiltjimenez200713@gmail.com,4083100664,"... optional ...","... optional ...","... optional ...","... optional ...","Nathan Jacob Jimenez",on,visitor2,notes
intime,FNAME,LNAME,CTG,box,email,phone,address,city,state,zip,Prospective0,GenderM0,propemail0,visitor2,notes
1488687373,LORENZO,ABEYTA,vs,1|2|3|5|10|20,altkings@sbcglobal.net,310-326-8151,"26011 Oakbay Road",Torrance,CA,90505,Jonah,on,altkings@sbcglobal.net,visitor2,notes
intime,FNAME,LNAME,CTG,box,email,address,city,state,zip,Prospective0,GenderM0,Age0,Prospective1,GenderM1,Age1,visitor2,notes
1488604545,Laura,Witten,vs,0|1|3|4|5|8|15|16,laura8900@gmail.com,"... optional ...","... optional ...","... optional ...","... optional ...","AJ ",on,10,Joseph,on,12,visitor2,notes
intime,FNAME,LNAME,CTG,box,email,phone,address,city,state,zip,visitor2,notes
1488409355,Owen,Liebenberg,vs,1|5|6|11|12|13|15|17,owen.liebenberg@gmail.com,(310)857-9209,"... optional ...","... optional ...","... optional ...","... optional ...",visitor2,notes
intime,FNAME,LNAME,CTG,box,email,phone,address,city,state,zip,Prospective0,GenderM0,Age0,propemail0,visitor2,notes
1488069847,Aaron,Morris,vs,0|1|2|4|5|8|9|10|15,aaron.morris@mac.com,5126580190,"2508 Via Pinale","Palos Verdes Estates",CA,90274,Grayson,on,11,Gamorris@gmail.com,visitor2,notes
intime,FNAME,LNAME,CTG,box,email,phone,address,city,state,zip,Prospective0,GenderF0,Age0,propemail0,visitor2,notes
1487992146,Kim,Crocker,vs,3|4|5|11|13|14|16|17|18,kimcrocker@comcast.net,301275-4416,"3805 Crestway Place","Los Angeles",Ca,90043,"Brooke Crocker",on,14,4louise2@gmail.com,visitor2,notes
intime,FNAME,LNAME,CTG,box,email,address,city,state,zip,Prospective0,GenderM0,visitor2,visitornotes,notes
1487987126,Mandy,Hillstrom,vs,2|5,mandyhillstromrd@gmail.com,"... optional ...","... optional ...","... optional ...","... optional ...",Allen,on,visitor2,"Interested in JAVA",notes
intime,FNAME,LNAME,CTG,box,email,phone,city,state,zip,visitor2,notes
1487898090,michael,destephen,vs,1|2|3|4|5|6|7|8|9|11|12|13|14|15|17,michaeldestephen@yahoo.com,3102932915,"... optional ...",CA,90274,visitor2,notes
intime,FNAME,LNAME,CTG,box,email,phone,address,city,state,zip,visitor2
1487540823,"christin ",morales,vs,0|3|5|10|18,josephrr2009@gmail.com,4247578579,"2017 lomita blvd",Lomita,CA,90717,visitor2
intime,FNAME,LNAME,CTG,box,email,address,city,state,zip,visitor2
1487456265,Charles,Ludlow,vs,3|4|5|13|14|17,charlesludlow@yahoo.com,"... optional ...","... optional ...","... optional ...","... optional ...",visitor2
intime,FNAME,LNAME,CTG,box,address,city,state,zip,email,visitor2
1487027181,nick,donohue,vs,4|5|6|7|8|9|10|14|15,(optional),(optional),(optional),(optional),puanick57@yahoo.com,visitor2
intime,FNAME,LNAME,CTG,box,gender,address,city,state,zip,email,phone,visitor2
1486943944,Owen,Ryan,vs,0|3|4|5,male,(optional),(optional),(optional),(optional),owen_prs@yahoo.com,13104229405,visitor2
intime,FNAME,LNAME,CTG,box,gender,address,city,state,zip,email,phone,visitor2
1486874682,charlie,villegas,vs,0|1|3|4|5|8|9|10|15|17,male,"5342 sharynne ln",torrance,california,90501,ajsdaddy06457@yahoo.com,3107043925,visitor2
intime,FNAME,LNAME,CTG,box,gender,address,city,state,zip,email,phone,visitor2
1486868206,jani,lange,vs,1|4|5|9|10,male,(optional),(optional),(optional),(optional),jani.lange@gmail.com,310-464-7434,visitor2
intime,FNAME,LNAME,CTG,box,address,city,state,zip,email,visitor2
1486864624,Tammy,Zar,vs,4|5|6|7|8|9|15,(optional),(optional),(optional),(optional),tammyzar@yahoo.com,visitor2
intime,FNAME,LNAME,CTG,box,gender,address,city,state,zip,email,phone,visitor2
1486754754,Sam,Sweetnam,vs,5|7|11|12|14|16,male,(optional),(optional),(optional),(optional),jon.kais@gmail.com,6026862851,visitor2
intime,FNAME,LNAME,CTG,box,address,city,state,zip,email,visitor2
1486602413,dondi,duffy,vs,1|4|5,(optional),(optional),(optional),(optional),dondiduff@mac.com,visitor2
intime,FNAME,LNAME,CTG,box,gender,address,city,state,zip,email,visitor2
1486416790,stella,uhm,vs,1|4|5|6|7|8|9|15,female,(optional),(optional),(optional),(optional),stellau@naver.com,visitor2
intime,FNAME,LNAME,CTG,box,gender,address,city,state,zip,email,phone,visitor2
1486259992,eduardo,yonamine,vs,0|1|3|4|5|8|10,male,(optional),(optional),(optional),(optional),eduardoyk77@gmail.com,3107489493,visitor2
intime,FNAME,CTG,box,address,city,state,zip,email,visitor2
1486085739,Westley,vs,0|1|2|3|4|5|6|7|8|9|11|12|13|14|15|16|17,(optional),"Rancho Palos Verdes",CA,90275,superzer0@mail.com,visitor2
intime,CTG,box,address,city,state,zip,visitor2
1486067795,vs,0|1|5|10|12|13|15|19,(optional),(optional),(optional),(optional),visitor2
intime,FNAME,LNAME,CTG,box,gender,age,address,city,state,zip,email,visitor2
1485728051,Nich,Smith,vs,5,male,26,"535 magnolia","long beach",ca,90802,Nichbern@gmail.com,visitor2
intime,FNAME,LNAME,CTG,box,email,visitor2
1485726226,john,baccarella,vs,5,jbaccarella@gmail.com,visitor2
