intime,FNAME,CTG,box,address,city,state,zip,visitor2,notes
1493064617,test,vs,0|1|2|3|4|5|6|7|8|9|10|11|12|13|14|15|16|17|18|19|20|21|22|23,"... optional ...","... optional ...","... optional ...","... optional ...",visitor2,notes
intime,FNAME,LNAME,CTG,box,email,phone,address,city,state,zip,visitor2,notes
1492915059,Alice,Raab,vs,0|1|4|9|11|12|16,alice.raab.bravo@gmail.com,3107292602,"... optional ...","... optional ...","... optional ...","... optional ...",visitor2,notes
intime,FNAME,LNAME,CTG,box,email,phone,address,city,state,zip,Prospective0,GenderM0,Age0,propemail0,visitor2,visitorstaffnotes,notes
1492467586,"Shiva ",Asrari,vs,5|6|7|8|9|11|12|15,sasrari@sbcglobal.net,734-645-3779,"... optional ...","... optional ...","... optional ...","... optional ...","Shayan Saadat",on,16,ShayanSaadat0@gmail,visitor2,"considering APCS",notes
intime,FNAME,LNAME,CTG,box,email,phone,address,city,state,zip,visitor2,visitornotes
1491851635,Wesley,Stedman,vs,10|11|13|16,wesleystedman@gmail.com,4242414002,"... optional ...","... optional ...","... optional ...","... optional ...",visitor2,"Volunteering opportunity
"
intime,FNAME,LNAME,CTG,box,email,phone,address,city,state,zip,Prospective0,GenderF0,Age0,visitor2,notes
1491007514,lili,chan,vs,4|11|20,lnarwati@gmail.com,310-938-6192,"... optional ...","... optional ...","... optional ...","... optional ...","Lili Chan",on,6.5,visitor2,notes
intime,FNAME,LNAME,CTG,box,email,phone,city,state,zip,Prospective0,GenderF0,Age0,propemail0,visitor2,notes
1490403166,Hailey,Ivanson,vs,0|1|2|3|4|5|6|7|8|9|10|11|13|14|15|16|17|20,hcivanson@gmail.com,1(310)341-8333,"... optional ...","... optional ...","... optional ...","Hailey Ivanson",on,14,hcivanson@gmail.com,visitor2,notes
intime,FNAME,LNAME,CTG,box,email,phone,address,city,state,zip,Prospective0,GenderM0,Prospective1,GenderM1,Age1,Prospective2,GenderM2,Age2,visitor2,notes
1489810146,Adei,Getachew,vs,1|2|3|5|10|11|13,adeigetachew@gmail.com,"310 864-2497","... optional ...","... optional ...","... optional ...","... optional ...","Ezekiel Simon-Thompson",on,"Aman Stevenson",on,13,"Zion Clark",on,15,visitor2,notes
intime,FNAME,LNAME,CTG,box,email,phone,address,city,state,zip,Prospective0,GenderM0,visitor2,notes
1489810059,Banchirga,Kebede,vs,1|2|3|5|10|11|13,banchirga@gmail.com,"310 930-8794","... optional ...","... optional ...","... optional ...","... optional ...",Gebriel,on,visitor2,notes
intime,FNAME,LNAME,CTG,box,email,phone,city,state,zip,Prospective0,GenderF0,Age0,propemail0,visitor2,notes
1488934729,karie,shehadey,vs,0|1|2|3|4|5|6|7|8|9|10|11|12|13|14|15|16|17,madsoph825@gmail.com,3109720015,"... optional ...","... optional ...","... optional ...","maddie shehadey",on,10,madsoph825@gmail.com,visitor2,notes
intime,FNAME,LNAME,CTG,box,email,phone,address,city,state,zip,Prospective0,GenderF0,propemail0,visitor2,visitornotes,notes
1488934652,Heather,Fleming,vs,0|1|2|3|4|5|6|7|8|9|10|11|12|13|14|15|16|17|22,hfleming48@gmail.com,"310 487 2051","... optional ...","... optional ...","... optional ...","... optional ...",Nova,on,hfleming48@gmail.com,visitor2,"Thank you!",notes
intime,FNAME,LNAME,CTG,box,email,phone,address,city,state,zip,visitor2,notes
1488409355,Owen,Liebenberg,vs,1|5|6|11|12|13|15|17,owen.liebenberg@gmail.com,(310)857-9209,"... optional ...","... optional ...","... optional ...","... optional ...",visitor2,notes
intime,FNAME,LNAME,CTG,box,email,phone,address,city,state,zip,Prospective0,GenderM0,Age0,visitor2,notes
1488054976,nancy,ikegami,vs,11,nhikegami@yahoo.com,3106506296,"... optional ...","... optional ...","... optional ...","... optional ...",ethan,on,14,visitor2,notes
intime,FNAME,LNAME,CTG,box,email,phone,address,city,state,zip,Prospective0,GenderF0,Age0,propemail0,visitor2,notes
1487992146,Kim,Crocker,vs,3|4|5|11|13|14|16|17|18,kimcrocker@comcast.net,301275-4416,"3805 Crestway Place","Los Angeles",Ca,90043,"Brooke Crocker",on,14,4louise2@gmail.com,visitor2,notes
intime,FNAME,LNAME,CTG,box,email,phone,city,state,zip,visitor2,notes
1487898090,michael,destephen,vs,1|2|3|4|5|6|7|8|9|11|12|13|14|15|17,michaeldestephen@yahoo.com,3102932915,"... optional ...",CA,90274,visitor2,notes
intime,FNAME,LNAME,CTG,box,gender,address,city,state,zip,email,phone,visitor2
1486754754,Sam,Sweetnam,vs,5|7|11|12|14|16,male,(optional),(optional),(optional),(optional),jon.kais@gmail.com,6026862851,visitor2
intime,FNAME,LNAME,CTG,box,gender,address,city,state,zip,email,phone,visitor2
1486521443,Brian,Zhu,vs,11|18,male,(optional),(optional),(optional),(optional),"brian_zhu99@yahoo.com, wenjun_ruan@yahoo.com",3107506928,visitor2
intime,FNAME,CTG,box,address,city,state,zip,email,visitor2
1486085739,Westley,vs,0|1|2|3|4|5|6|7|8|9|11|12|13|14|15|16|17,(optional),"Rancho Palos Verdes",CA,90275,superzer0@mail.com,visitor2
intime,FNAME,LNAME,CTG,box,gender,age,address,city,state,zip,email,phone,visitor2
1485466555,SHEIDA,KASHANI,vs,0|1|9|10|11,male,12,"32 AVENIDA CORONA",RPV,CA,90275,SHEIDAK1@YAHOO.COM,3105219522,visitor2
intime,FNAME,LNAME,CTG,box,visitor2
1485212575,Allen,King,vs,11|16,visitor2
