intime,FNAME,CTG,box,address,city,state,zip,visitor2,notes
1493064617,test,vs,0|1|2|3|4|5|6|7|8|9|10|11|12|13|14|15|16|17|18|19|20|21|22|23,"... optional ...","... optional ...","... optional ...","... optional ...",visitor2,notes
intime,FNAME,LNAME,CTG,box,email,phone,address,city,state,zip,Prospective0,GenderM0,Age0,visitor2,visitorstaffnotes,notes
1492993407,Ilene,Brown,vs,5|6|7|8|9|10|15,holdensbrown@gmail.com,310-951-8138,"... optional ...","... optional ...","... optional ...","... optional ...",evan,on,21,visitor2,spectrum,notes
intime,FNAME,LNAME,CTG,box,email,phone,address,city,state,zip,visitor2,notes
1492915059,Alice,Raab,vs,0|1|4|9|11|12|16,alice.raab.bravo@gmail.com,3107292602,"... optional ...","... optional ...","... optional ...","... optional ...",visitor2,notes
intime,FNAME,LNAME,CTG,box,email,phone,address,city,state,zip,Prospective0,GenderM0,Age0,visitor2,visitornotes,notes
1492814084,Sheila,Anderson,vs,0|1|4|5|6|7|8|9|10,sfa0277@gmail.com,310-374-0551,"... optional ...","... optional ...","... optional ...","... optional ...",Liam,on,13,visitor2,"Margaret Mary in Lomita",notes
intime,FNAME,LNAME,CTG,box,email,phone,address,city,state,zip,Prospective0,GenderM0,Age0,propemail0,visitor2,visitorstaffnotes,notes
1492467586,"Shiva ",Asrari,vs,5|6|7|8|9|11|12|15,sasrari@sbcglobal.net,734-645-3779,"... optional ...","... optional ...","... optional ...","... optional ...","Shayan Saadat",on,16,ShayanSaadat0@gmail,visitor2,"considering APCS",notes
intime,FNAME,LNAME,CTG,box,email,phone,address,city,state,zip,Prospective0,GenderM0,visitor2,visitornotes,visitorstaffnotes,notes
1491106363,Elham,Tavabi,vs,5|6|7|9|10|15,Elmers11@hotmail.com,310-701-1416,"... optional ...","... optional ...","... optional ...","... optional ...",Kian,on,visitor2,Larchmont,"Mom teaches 1st grade at Larchmont",notes
intime,FNAME,LNAME,CTG,box,email,phone,city,state,zip,visitor2,notes
1490415853,"jennifer ",castro,vs,1|3|4|5|8|9|10|14|15|16|17|20|21,jennycstrox3@gmail.com,4244776379,"... optional ...","... optional ...","... optional ...",visitor2,notes
intime,FNAME,LNAME,CTG,box,email,phone,city,state,zip,Prospective0,GenderF0,Age0,propemail0,visitor2,notes
1490403166,Hailey,Ivanson,vs,0|1|2|3|4|5|6|7|8|9|10|11|13|14|15|16|17|20,hcivanson@gmail.com,1(310)341-8333,"... optional ...","... optional ...","... optional ...","Hailey Ivanson",on,14,hcivanson@gmail.com,visitor2,notes
intime,FNAME,LNAME,CTG,box,email,phone,address,city,state,zip,Prospective0,GenderM0,visitor2,visitornotes,notes
1489896865,Azadeh,Khatibi,vs,0|1|2|4|5|6|7|8|9|15,eye.azadeh@gmail.com,"(510) 388-3404","... optional ...","... optional ...","... optional ...","... optional ...",Jahan,on,visitor2,"Rolling Robots, loves 3D game design, 3 D printing.  Interested in laser printing.",notes
intime,FNAME,LNAME,CTG,box,email,phone,address,city,state,zip,Prospective0,GenderM0,propemail0,visitor2,notes
1489797598,nic,brae,vs,3|5|9|10,nikkinaya@yahoo.com,3106262466,"... optional ...","... optional ...","... optional ...","... optional ...","nic brae",on,nikkinaya@yahoo.com,visitor2,notes
intime,FNAME,LNAME,CTG,box,email,address,city,state,zip,Prospective0,GenderF0,Age0,visitor2,notes
1489457438,Zoe,Santoro,vs,1|4|5|6|8|9|13|14|15|16|17,zzoe12@gmail.com,"... optional ...","... optional ...","... optional ...","... optional ...","Zoe Santoro",on,17,visitor2,notes
intime,FNAME,LNAME,CTG,box,email,address,city,state,zip,Prospective0,GenderM0,visitor2,notes
1489454066,TIJANA,TRIPALO,vs,5|6|7|8|9|10,TIXON74@GMAIL.COM,"... optional ...","... optional ...","... optional ...","... optional ...",KOSTA,on,visitor2,notes
intime,FNAME,LNAME,CTG,box,email,phone,address,city,state,zip,Prospective0,GenderM0,visitor2,visitornotes,notes
1489280988,claudia,navarro,vs,5|6|7|8|9,cnavarro037@yahoo.com,310-9408063,"3720 emerald st #v2",torrance,ca,90503,daniel,on,visitor2,"uncle is a councelor at el camino collegue",notes
intime,FNAME,LNAME,CTG,box,email,phone,address,city,state,zip,Prospective0,GenderM0,Age0,propemail0,Prospective1,GenderF1,propemail1,visitor2,notes
1489169961,marisa,checa,vs,1|2|3|6|9|10|13|15,mlcheca@gmail.com,310-977-7872,"... optional ...","... optional ...","... optional ...","... optional ...","Alex Ambite",on,10,mlcheca@gmail.com,"Sara Ambite",on,mlcheca@gmail.com,visitor2,notes
intime,FNAME,LNAME,CTG,box,email,address,city,state,zip,Prospective0,GenderM0,visitor2,visitornotes,notes
1489106591,Tamami,Kamiya,vs,5|6|7|8|9|10,tkamiya2@socal.rr.com,"... optional ...","... optional ...","... optional ...","... optional ...",Sora,on,visitor2,"Likes game design!!!",notes
intime,FNAME,LNAME,CTG,box,email,phone,city,state,zip,Prospective0,GenderF0,Age0,propemail0,visitor2,notes
1488934729,karie,shehadey,vs,0|1|2|3|4|5|6|7|8|9|10|11|12|13|14|15|16|17,madsoph825@gmail.com,3109720015,"... optional ...","... optional ...","... optional ...","maddie shehadey",on,10,madsoph825@gmail.com,visitor2,notes
intime,FNAME,LNAME,CTG,box,email,phone,address,city,state,zip,Prospective0,GenderF0,propemail0,visitor2,visitornotes,notes
1488934652,Heather,Fleming,vs,0|1|2|3|4|5|6|7|8|9|10|11|12|13|14|15|16|17|22,hfleming48@gmail.com,"310 487 2051","... optional ...","... optional ...","... optional ...","... optional ...",Nova,on,hfleming48@gmail.com,visitor2,"Thank you!",notes
intime,FNAME,LNAME,CTG,box,email,address,city,state,zip,visitor2,notes
1488082953,Hunter,Newcomer,vs,4|9|10|16,hunternewphoto@sbcglobal.net,"... optional ...","... optional ...","... optional ...","... optional ...",visitor2,notes
intime,FNAME,LNAME,CTG,box,email,phone,address,city,state,zip,Prospective0,GenderM0,Age0,propemail0,visitor2,notes
1488069847,Aaron,Morris,vs,0|1|2|4|5|8|9|10|15,aaron.morris@mac.com,5126580190,"2508 Via Pinale","Palos Verdes Estates",CA,90274,Grayson,on,11,Gamorris@gmail.com,visitor2,notes
intime,FNAME,LNAME,CTG,box,email,phone,address,city,state,zip,Prospective0,GenderM0,Age0,visitor2,notes
1487994675,chris,mone,vs,0|1|4|9|10,cmmone5@gmail.com,3109168791,"... optional ...","... optional ...","... optional ...","... optional ...","Austin Mone",on,13,visitor2,notes
intime,FNAME,LNAME,CTG,box,email,phone,city,state,zip,Prospective0,GenderM0,propemail0,visitor2,notes
1487982459,Latrice,Allen,vs,0|1|2|3|8|9|10,lallenmd@gmail.com,3109014977,"... optional ...","... optional ...","... optional ...","Noah Shepherd",on,lallenmd@gmail.com,visitor2,notes
intime,FNAME,LNAME,CTG,box,email,phone,city,state,zip,visitor2,notes
1487898090,michael,destephen,vs,1|2|3|4|5|6|7|8|9|11|12|13|14|15|17,michaeldestephen@yahoo.com,3102932915,"... optional ...",CA,90274,visitor2,notes
intime,FNAME,LNAME,CTG,box,email,address,city,state,zip,visitor2
1487639300,Iris,Zelaya,vs,0|4|6|7|8|9|10|14,zelaya_iris@ymail.com,"... optional ...","... optional ...","... optional ...","... optional ...",visitor2
intime,FNAME,LNAME,CTG,box,email,phone,city,state,zip,visitor2
1487360307,KRISTEL,SCHEUERMANN,vs,9|10|17,cita1030@gmail.com,3109899890,"... optional ...","... optional ...","... optional ...",visitor2
intime,FNAME,LNAME,CTG,box,address,city,state,zip,email,visitor2
1487027181,nick,donohue,vs,4|5|6|7|8|9|10|14|15,(optional),(optional),(optional),(optional),puanick57@yahoo.com,visitor2
intime,FNAME,LNAME,CTG,box,gender,address,city,state,zip,email,phone,visitor2
1486874682,charlie,villegas,vs,0|1|3|4|5|8|9|10|15|17,male,"5342 sharynne ln",torrance,california,90501,ajsdaddy06457@yahoo.com,3107043925,visitor2
intime,FNAME,LNAME,CTG,box,gender,address,city,state,zip,email,phone,visitor2
1486868206,jani,lange,vs,1|4|5|9|10,male,(optional),(optional),(optional),(optional),jani.lange@gmail.com,310-464-7434,visitor2
intime,FNAME,LNAME,CTG,box,address,city,state,zip,email,visitor2
1486864624,Tammy,Zar,vs,4|5|6|7|8|9|15,(optional),(optional),(optional),(optional),tammyzar@yahoo.com,visitor2
intime,FNAME,LNAME,CTG,box,gender,address,city,state,zip,email,visitor2
1486416790,stella,uhm,vs,1|4|5|6|7|8|9|15,female,(optional),(optional),(optional),(optional),stellau@naver.com,visitor2
intime,FNAME,CTG,box,address,city,state,zip,email,visitor2
1486085739,Westley,vs,0|1|2|3|4|5|6|7|8|9|11|12|13|14|15|16|17,(optional),"Rancho Palos Verdes",CA,90275,superzer0@mail.com,visitor2
intime,FNAME,LNAME,CTG,box,address,city,state,zip,email,visitor2
1485994644,Michael,Yu,vs,9,(optional),(optional),(optional),(optional),ymichael333@gmail.com,visitor2
intime,FNAME,LNAME,CTG,box,gender,age,address,email,visitor2
1485989157,Tim,Vogt,vs,7|9|10,male,56,"25202 Crenshaw Blvd",tokyotim@ix.netcom.com,visitor2
intime,FNAME,LNAME,CTG,box,gender,email,visitor2
1485920876,Lauren,Freeman,vs,8|9,female,littlelauren_91@yahoo.com,visitor2
intime,FNAME,LNAME,CTG,box,gender,age,address,city,state,zip,email,phone,visitor2
1485466555,SHEIDA,KASHANI,vs,0|1|9|10|11,male,12,"32 AVENIDA CORONA",RPV,CA,90275,SHEIDAK1@YAHOO.COM,3105219522,visitor2
intime,FNAME,LNAME,CTG,box,gender,age,address,city,state,zip,email,visitor2
1484848474,Ed,Shea,vs,9|16,male,61,"25 Via San Remo",rpv,ca,90275,edjshea@gmail.com,visitor2
