intime,FNAME,CTG,box,address,city,state,zip,visitor2,notes
1493064617,test,vs,0|1|2|3|4|5|6|7|8|9|10|11|12|13|14|15|16|17|18|19|20|21|22|23,"... optional ...","... optional ...","... optional ...","... optional ...",visitor2,notes
intime,FNAME,LNAME,CTG,box,email,phone,address,city,state,zip,visitor2,notes
1492915059,Alice,Raab,vs,0|1|4|9|11|12|16,alice.raab.bravo@gmail.com,3107292602,"... optional ...","... optional ...","... optional ...","... optional ...",visitor2,notes
intime,FNAME,LNAME,CTG,box,email,phone,address,city,state,zip,Prospective0,GenderF0,Age0,propemail0,visitor2,notes
1492827979,MARK,SARNI,vs,4|5|10|14|16|20,SOUTHBAYADR@GMAIL.COM,310-486-0817,"... optional ...","... optional ...","... optional ...","... optional ...",KARMA,on,12,SOUTHBAYADR@GMAIL.COM,visitor2,notes
intime,FNAME,LNAME,CTG,box,email,phone,address,city,state,zip,Prospective0,GenderM0,Age0,propemail0,visitor2,notes
1492230834,"William ",Nelson,vs,16,wrnelson98@yahoo.com,301-567-7506,"... optional ...","... optional ...","... optional ...","... optional ...","William Nelson",on,19,wrnelson98@yahoo.com,visitor2,notes
intime,FNAME,LNAME,CTG,box,email,phone,address,city,state,zip,visitor2,visitornotes
1491851635,Wesley,Stedman,vs,10|11|13|16,wesleystedman@gmail.com,4242414002,"... optional ...","... optional ...","... optional ...","... optional ...",visitor2,"Volunteering opportunity
"
intime,FNAME,LNAME,CTG,box,email,phone,address,city,state,zip,Prospective0,GenderM0,Age0,propemail0,visitor2,notes
1490567111,CJ,Boling,vs,16|17,thesaltiestboys@gmail.com,7067555017,"... optional ...","... optional ...","... optional ...","... optional ...",CJ,on,12,thesaltiestboys@gmail.com,visitor2,notes
intime,FNAME,LNAME,CTG,box,email,phone,city,state,zip,visitor2,notes
1490415853,"jennifer ",castro,vs,1|3|4|5|8|9|10|14|15|16|17|20|21,jennycstrox3@gmail.com,4244776379,"... optional ...","... optional ...","... optional ...",visitor2,notes
intime,FNAME,LNAME,CTG,box,email,phone,city,state,zip,Prospective0,GenderF0,Age0,propemail0,visitor2,notes
1490403166,Hailey,Ivanson,vs,0|1|2|3|4|5|6|7|8|9|10|11|13|14|15|16|17|20,hcivanson@gmail.com,1(310)341-8333,"... optional ...","... optional ...","... optional ...","Hailey Ivanson",on,14,hcivanson@gmail.com,visitor2,notes
intime,FNAME,LNAME,CTG,box,email,address,city,state,zip,Prospective0,GenderF0,Age0,visitor2,notes
1489457438,Zoe,Santoro,vs,1|4|5|6|8|9|13|14|15|16|17,zzoe12@gmail.com,"... optional ...","... optional ...","... optional ...","... optional ...","Zoe Santoro",on,17,visitor2,notes
intime,FNAME,LNAME,CTG,box,email,phone,city,state,zip,Prospective0,GenderF0,Age0,propemail0,visitor2,notes
1488934729,karie,shehadey,vs,0|1|2|3|4|5|6|7|8|9|10|11|12|13|14|15|16|17,madsoph825@gmail.com,3109720015,"... optional ...","... optional ...","... optional ...","maddie shehadey",on,10,madsoph825@gmail.com,visitor2,notes
intime,FNAME,LNAME,CTG,box,email,phone,address,city,state,zip,Prospective0,GenderF0,propemail0,visitor2,visitornotes,notes
1488934652,Heather,Fleming,vs,0|1|2|3|4|5|6|7|8|9|10|11|12|13|14|15|16|17|22,hfleming48@gmail.com,"310 487 2051","... optional ...","... optional ...","... optional ...","... optional ...",Nova,on,hfleming48@gmail.com,visitor2,"Thank you!",notes
intime,FNAME,LNAME,CTG,box,email,address,city,state,zip,Prospective0,GenderM0,Age0,Prospective1,GenderM1,Age1,visitor2,notes
1488604545,Laura,Witten,vs,0|1|3|4|5|8|15|16,laura8900@gmail.com,"... optional ...","... optional ...","... optional ...","... optional ...","AJ ",on,10,Joseph,on,12,visitor2,notes
intime,CTG,box,address,city,state,zip,visitor2,notes
1488590523,vs,12|13|14|15|16|17|18|19|20|21|22|23,"... optional ...","... optional ...","... optional ...","... optional ...",visitor2,notes
intime,FNAME,LNAME,CTG,box,email,address,city,state,zip,visitor2,notes
1488327218,anne,ortega,vs,13|14|16,annemilly2003@yahoo.com,"... optional ...","... optional ...","... optional ...","... optional ...",visitor2,notes
intime,FNAME,LNAME,CTG,box,email,address,city,state,zip,visitor2,notes
1488327146,bianca,henry,vs,16,henrymarley64@gmail.com,"... optional ...","... optional ...","... optional ...","... optional ...",visitor2,notes
intime,FNAME,LNAME,CTG,box,email,address,city,state,zip,visitor2,notes
1488327081,Emilly,Ortega,vs,15|16,savannah.ortega52@yahoo.com,"... optional ...","... optional ...","... optional ...","... optional ...",visitor2,notes
intime,FNAME,LNAME,CTG,box,email,address,city,state,zip,visitor2,notes
1488082953,Hunter,Newcomer,vs,4|9|10|16,hunternewphoto@sbcglobal.net,"... optional ...","... optional ...","... optional ...","... optional ...",visitor2,notes
intime,FNAME,LNAME,CTG,box,email,phone,address,city,state,zip,Prospective0,GenderF0,Age0,propemail0,visitor2,notes
1487992146,Kim,Crocker,vs,3|4|5|11|13|14|16|17|18,kimcrocker@comcast.net,301275-4416,"3805 Crestway Place","Los Angeles",Ca,90043,"Brooke Crocker",on,14,4louise2@gmail.com,visitor2,notes
intime,FNAME,LNAME,CTG,box,gender,address,city,state,zip,email,phone,visitor2
1486758663,jonathan,kaiser,vs,14|16|17,female,(optional),(optional),(optional),(optional),ohdarlinglisa@gmail.com,5203018605,visitor2
intime,FNAME,LNAME,CTG,box,gender,address,city,state,zip,email,phone,visitor2
1486754754,Sam,Sweetnam,vs,5|7|11|12|14|16,male,(optional),(optional),(optional),(optional),jon.kais@gmail.com,6026862851,visitor2
intime,FNAME,CTG,box,address,city,state,zip,email,visitor2
1486085739,Westley,vs,0|1|2|3|4|5|6|7|8|9|11|12|13|14|15|16|17,(optional),"Rancho Palos Verdes",CA,90275,superzer0@mail.com,visitor2
intime,FNAME,LNAME,CTG,box,visitor2
1485212575,Allen,King,vs,11|16,visitor2
intime,FNAME,LNAME,CTG,box,gender,age,address,city,state,zip,email,visitor2
1484848474,Ed,Shea,vs,9|16,male,61,"25 Via San Remo",rpv,ca,90275,edjshea@gmail.com,visitor2
