intime,FNAME,CTG,box,address,city,state,zip,visitor2,notes
1493064617,test,vs,0|1|2|3|4|5|6|7|8|9|10|11|12|13|14|15|16|17|18|19|20|21|22|23,"... optional ...","... optional ...","... optional ...","... optional ...",visitor2,notes
intime,FNAME,LNAME,CTG,box,email,phone,address,city,state,zip,Prospective0,GenderF0,Age0,propemail0,visitor2,notes
1492827979,MARK,SARNI,vs,4|5|10|14|16|20,SOUTHBAYADR@GMAIL.COM,310-486-0817,"... optional ...","... optional ...","... optional ...","... optional ...",KARMA,on,12,SOUTHBAYADR@GMAIL.COM,visitor2,notes
intime,FNAME,LNAME,CTG,box,email,phone,address,city,state,zip,visitor2,visitornotes,notes
1492299552,Melissa,Audain,vs,1|3|14|23,melissakmc02@gmail.com,424-237-6202,"... optional ...","... optional ...","... optional ...","... optional ...",visitor2,"Student: Amaya Audain, 10 y/o ",notes
intime,FNAME,LNAME,CTG,box,email,phone,address,city,state,zip,visitor2,visitornotes,notes
1492208046,Alex,Medina,vs,5|10|13|14|20,Billyrui93@gmail.com,310.213.5041,"... optional ...","... optional ...","... optional ...","... optional ...",visitor2,"Checking programs that are offered.",notes
intime,FNAME,LNAME,CTG,box,email,phone,city,state,zip,visitor2,notes
1490415853,"jennifer ",castro,vs,1|3|4|5|8|9|10|14|15|16|17|20|21,jennycstrox3@gmail.com,4244776379,"... optional ...","... optional ...","... optional ...",visitor2,notes
intime,FNAME,LNAME,CTG,box,email,phone,city,state,zip,Prospective0,GenderF0,Age0,propemail0,visitor2,notes
1490403166,Hailey,Ivanson,vs,0|1|2|3|4|5|6|7|8|9|10|11|13|14|15|16|17|20,hcivanson@gmail.com,1(310)341-8333,"... optional ...","... optional ...","... optional ...","Hailey Ivanson",on,14,hcivanson@gmail.com,visitor2,notes
intime,FNAME,LNAME,CTG,box,email,phone,address,city,state,zip,visitor2,visitornotes,notes
1490396974,Suzanne,Amaira,vs,1|2|4|5|10|14,umm.noor@gmail.com,4242503650,"... optional ...","... optional ...","... optional ...","... optional ...",visitor2,"My kids are currently homeschooled.",notes
intime,FNAME,LNAME,CTG,box,email,address,city,state,zip,Prospective0,GenderF0,Age0,visitor2,notes
1489457438,Zoe,Santoro,vs,1|4|5|6|8|9|13|14|15|16|17,zzoe12@gmail.com,"... optional ...","... optional ...","... optional ...","... optional ...","Zoe Santoro",on,17,visitor2,notes
intime,FNAME,LNAME,CTG,box,email,phone,address,city,state,zip,Prospective0,GenderM0,propemail0,visitor2,notes
1489443548,"Catherine ","Lo Iacono",vs,1|2|3|4|5|10|13|14|20,catherine.loiacono@yahoo.com,"424 201 9415","... optional ...","... optional ...","... optional ...","... optional ...","Daniele Lo Iacono",on,catherine.loiacono@yahoo.com,visitor2,notes
intime,FNAME,LNAME,CTG,box,email,phone,city,state,zip,Prospective0,GenderF0,Age0,propemail0,visitor2,notes
1488934729,karie,shehadey,vs,0|1|2|3|4|5|6|7|8|9|10|11|12|13|14|15|16|17,madsoph825@gmail.com,3109720015,"... optional ...","... optional ...","... optional ...","maddie shehadey",on,10,madsoph825@gmail.com,visitor2,notes
intime,FNAME,LNAME,CTG,box,email,phone,address,city,state,zip,Prospective0,GenderF0,propemail0,visitor2,visitornotes,notes
1488934652,Heather,Fleming,vs,0|1|2|3|4|5|6|7|8|9|10|11|12|13|14|15|16|17|22,hfleming48@gmail.com,"310 487 2051","... optional ...","... optional ...","... optional ...","... optional ...",Nova,on,hfleming48@gmail.com,visitor2,"Thank you!",notes
intime,CTG,box,address,city,state,zip,visitor2,notes
1488590523,vs,12|13|14|15|16|17|18|19|20|21|22|23,"... optional ...","... optional ...","... optional ...","... optional ...",visitor2,notes
intime,FNAME,LNAME,CTG,box,email,address,city,state,zip,visitor2,notes
1488327218,anne,ortega,vs,13|14|16,annemilly2003@yahoo.com,"... optional ...","... optional ...","... optional ...","... optional ...",visitor2,notes
intime,FNAME,LNAME,CTG,box,email,phone,address,city,state,zip,Prospective0,GenderF0,Age0,propemail0,visitor2,notes
1487992146,Kim,Crocker,vs,3|4|5|11|13|14|16|17|18,kimcrocker@comcast.net,301275-4416,"3805 Crestway Place","Los Angeles",Ca,90043,"Brooke Crocker",on,14,4louise2@gmail.com,visitor2,notes
intime,FNAME,LNAME,CTG,box,email,phone,city,state,zip,visitor2,notes
1487898090,michael,destephen,vs,1|2|3|4|5|6|7|8|9|11|12|13|14|15|17,michaeldestephen@yahoo.com,3102932915,"... optional ...",CA,90274,visitor2,notes
intime,FNAME,LNAME,CTG,box,email,address,city,state,zip,visitor2
1487639300,Iris,Zelaya,vs,0|4|6|7|8|9|10|14,zelaya_iris@ymail.com,"... optional ...","... optional ...","... optional ...","... optional ...",visitor2
intime,FNAME,LNAME,CTG,box,email,address,city,state,zip,visitor2
1487456265,Charles,Ludlow,vs,3|4|5|13|14|17,charlesludlow@yahoo.com,"... optional ...","... optional ...","... optional ...","... optional ...",visitor2
intime,FNAME,LNAME,CTG,box,address,city,state,zip,email,visitor2
1487027181,nick,donohue,vs,4|5|6|7|8|9|10|14|15,(optional),(optional),(optional),(optional),puanick57@yahoo.com,visitor2
intime,FNAME,LNAME,CTG,box,gender,address,city,state,zip,email,phone,visitor2
1486758663,jonathan,kaiser,vs,14|16|17,female,(optional),(optional),(optional),(optional),ohdarlinglisa@gmail.com,5203018605,visitor2
intime,FNAME,LNAME,CTG,box,gender,address,city,state,zip,email,phone,visitor2
1486754754,Sam,Sweetnam,vs,5|7|11|12|14|16,male,(optional),(optional),(optional),(optional),jon.kais@gmail.com,6026862851,visitor2
intime,FNAME,LNAME,CTG,box,address,city,state,zip,email,visitor2
1486257199,Nicolle,Enrique,vs,0|10|13|14,(optional),(optional),(optional),(optional),neenrique@yahoo.com,visitor2
intime,FNAME,CTG,box,address,city,state,zip,email,visitor2
1486085739,Westley,vs,0|1|2|3|4|5|6|7|8|9|11|12|13|14|15|16|17,(optional),"Rancho Palos Verdes",CA,90275,superzer0@mail.com,visitor2
