intime,FNAME,CTG,box,address,city,state,zip,visitor2,notes
1493064617,test,vs,0|1|2|3|4|5|6|7|8|9|10|11|12|13|14|15|16|17|18|19|20|21|22|23,"... optional ...","... optional ...","... optional ...","... optional ...",visitor2,notes
intime,FNAME,LNAME,CTG,box,email,phone,city,state,zip,Prospective0,GenderF0,Age0,propemail0,visitor2,notes
1490403166,Hailey,Ivanson,vs,0|1|2|3|4|5|6|7|8|9|10|11|13|14|15|16|17|20,hcivanson@gmail.com,1(310)341-8333,"... optional ...","... optional ...","... optional ...","Hailey Ivanson",on,14,hcivanson@gmail.com,visitor2,notes
intime,FNAME,LNAME,CTG,box,email,phone,address,city,state,zip,visitor2,visitornotes,notes
1490396974,Suzanne,Amaira,vs,1|2|4|5|10|14,umm.noor@gmail.com,4242503650,"... optional ...","... optional ...","... optional ...","... optional ...",visitor2,"My kids are currently homeschooled.",notes
intime,FNAME,LNAME,CTG,box,email,phone,address,city,state,zip,Prospective0,GenderM0,visitor2,visitornotes,notes
1489896865,Azadeh,Khatibi,vs,0|1|2|4|5|6|7|8|9|15,eye.azadeh@gmail.com,"(510) 388-3404","... optional ...","... optional ...","... optional ...","... optional ...",Jahan,on,visitor2,"Rolling Robots, loves 3D game design, 3 D printing.  Interested in laser printing.",notes
intime,FNAME,LNAME,CTG,box,email,phone,address,city,state,zip,Prospective0,GenderM0,Prospective1,GenderM1,Age1,Prospective2,GenderM2,Age2,visitor2,notes
1489810146,Adei,Getachew,vs,1|2|3|5|10|11|13,adeigetachew@gmail.com,"310 864-2497","... optional ...","... optional ...","... optional ...","... optional ...","Ezekiel Simon-Thompson",on,"Aman Stevenson",on,13,"Zion Clark",on,15,visitor2,notes
intime,FNAME,LNAME,CTG,box,email,phone,address,city,state,zip,Prospective0,GenderM0,visitor2,notes
1489810059,Banchirga,Kebede,vs,1|2|3|5|10|11|13,banchirga@gmail.com,"310 930-8794","... optional ...","... optional ...","... optional ...","... optional ...",Gebriel,on,visitor2,notes
intime,FNAME,LNAME,CTG,box,email,phone,address,city,state,zip,Prospective0,GenderM0,propemail0,visitor2,notes
1489443548,"Catherine ","Lo Iacono",vs,1|2|3|4|5|10|13|14|20,catherine.loiacono@yahoo.com,"424 201 9415","... optional ...","... optional ...","... optional ...","... optional ...","Daniele Lo Iacono",on,catherine.loiacono@yahoo.com,visitor2,notes
intime,FNAME,LNAME,CTG,box,email,phone,address,city,state,zip,Prospective0,GenderM0,Age0,propemail0,Prospective1,GenderF1,propemail1,visitor2,notes
1489169961,marisa,checa,vs,1|2|3|6|9|10|13|15,mlcheca@gmail.com,310-977-7872,"... optional ...","... optional ...","... optional ...","... optional ...","Alex Ambite",on,10,mlcheca@gmail.com,"Sara Ambite",on,mlcheca@gmail.com,visitor2,notes
intime,FNAME,LNAME,CTG,box,email,phone,city,state,zip,Prospective0,GenderF0,Age0,propemail0,visitor2,notes
1488934729,karie,shehadey,vs,0|1|2|3|4|5|6|7|8|9|10|11|12|13|14|15|16|17,madsoph825@gmail.com,3109720015,"... optional ...","... optional ...","... optional ...","maddie shehadey",on,10,madsoph825@gmail.com,visitor2,notes
intime,FNAME,LNAME,CTG,box,email,phone,address,city,state,zip,Prospective0,GenderF0,propemail0,visitor2,visitornotes,notes
1488934652,Heather,Fleming,vs,0|1|2|3|4|5|6|7|8|9|10|11|12|13|14|15|16|17|22,hfleming48@gmail.com,"310 487 2051","... optional ...","... optional ...","... optional ...","... optional ...",Nova,on,hfleming48@gmail.com,visitor2,"Thank you!",notes
intime,FNAME,LNAME,CTG,box,email,phone,address,city,state,zip,Prospective0,GenderM0,visitor2,notes
1488910555,Xochilt,Jimenez,vs,0|1|2|3|4|5|7|10|15,Xochiltjimenez200713@gmail.com,4083100664,"... optional ...","... optional ...","... optional ...","... optional ...","Nathan Jacob Jimenez",on,visitor2,notes
intime,FNAME,LNAME,CTG,box,email,phone,address,city,state,zip,Prospective0,GenderM0,propemail0,visitor2,notes
1488687373,LORENZO,ABEYTA,vs,1|2|3|5|10|20,altkings@sbcglobal.net,310-326-8151,"26011 Oakbay Road",Torrance,CA,90505,Jonah,on,altkings@sbcglobal.net,visitor2,notes
intime,FNAME,LNAME,CTG,box,email,phone,address,city,state,zip,Prospective0,GenderM0,Age0,propemail0,visitor2,notes
1488069847,Aaron,Morris,vs,0|1|2|4|5|8|9|10|15,aaron.morris@mac.com,5126580190,"2508 Via Pinale","Palos Verdes Estates",CA,90274,Grayson,on,11,Gamorris@gmail.com,visitor2,notes
intime,FNAME,LNAME,CTG,box,email,address,city,state,zip,Prospective0,GenderM0,visitor2,notes
1488056370,alex,portet,vs,0|1|2|3|4|15,alex.portet@hotmail.com,"... optional ...","... optional ...","... optional ...","... optional ...",Luca,on,visitor2,notes
intime,FNAME,LNAME,CTG,box,email,address,city,state,zip,Prospective0,GenderM0,visitor2,visitornotes,notes
1487987126,Mandy,Hillstrom,vs,2|5,mandyhillstromrd@gmail.com,"... optional ...","... optional ...","... optional ...","... optional ...",Allen,on,visitor2,"Interested in JAVA",notes
intime,FNAME,LNAME,CTG,box,email,phone,city,state,zip,Prospective0,GenderM0,propemail0,visitor2,notes
1487982459,Latrice,Allen,vs,0|1|2|3|8|9|10,lallenmd@gmail.com,3109014977,"... optional ...","... optional ...","... optional ...","Noah Shepherd",on,lallenmd@gmail.com,visitor2,notes
intime,FNAME,LNAME,CTG,box,email,phone,city,state,zip,visitor2,notes
1487898090,michael,destephen,vs,1|2|3|4|5|6|7|8|9|11|12|13|14|15|17,michaeldestephen@yahoo.com,3102932915,"... optional ...",CA,90274,visitor2,notes
intime,FNAME,LNAME,CTG,visitor,box,sponsor,CompanyName,CompanyCity,CompanyWebsite,Notes,email,phone,address,city,state,zip,Prospective0,GenderM0,propemail0,visitor2,visitornotes,visitorstaffnotes,notes
1487800264,test,test,vs,visitor,0|1|2,sponsor,test,test,test,test,guardianemail,guardianphone,"... optional ...","... optional ...","... optional ...","... optional ...",studentname,on,11,visitor2,"this is a note area meant for staff members","this is a note area meant for staff members",notes
intime,FNAME,LNAME,CTG,visitor,box,sponsor,CompanyName,CompanyCity,CompanyWebsite,Notes,email,phone,address,city,state,zip,visitor2
1487115690,test,test,vs,visitor,0|1|2|3,sponsor,company,"company city",http:company,"this is a test",test@abc,321321321,"... optional ...","... optional ...","... optional ...","... optional ...",visitor2
intime,FNAME,LNAME,CTG,box,gender,address,city,state,zip,email,visitor2
1487034586,Athena,Perrez,vs,2|4|10,female,(optional),(optional),(optional),(optional),lilpants79@yahoo.com,visitor2
intime,CTG,box,address,city,state,zip,visitor2
1486772818,vs,0|2|3|4,(optional),(optional),(optional),(optional),visitor2
intime,FNAME,CTG,box,address,city,state,zip,email,visitor2
1486085739,Westley,vs,0|1|2|3|4|5|6|7|8|9|11|12|13|14|15|16|17,(optional),"Rancho Palos Verdes",CA,90275,superzer0@mail.com,visitor2
