intime,FNAME,CTG,box,address,city,state,zip,visitor2,notes
1493064617,test,vs,0|1|2|3|4|5|6|7|8|9|10|11|12|13|14|15|16|17|18|19|20|21|22|23,"... optional ...","... optional ...","... optional ...","... optional ...",visitor2,notes
intime,CTG,box,email,address,city,state,zip,visitor2,notes
1493063945,vs,17,test,"... optional ...","... optional ...","... optional ...","... optional ...",visitor2,notes
intime,FNAME,LNAME,CTG,box,email,phone,address,city,state,zip,Prospective0,GenderM0,Age0,propemail0,visitor2,notes
1490902680,kelly,schmit,vs,1|5|6|7|15|17,kls4999@aol.com,3106293489,"... optional ...","... optional ...","... optional ...","... optional ...","Nick Schmit",on,15,nschmit2711@gmail.com,visitor2,notes
intime,FNAME,LNAME,CTG,box,email,phone,address,city,state,zip,Prospective0,GenderM0,Age0,propemail0,visitor2,notes
1490567111,CJ,Boling,vs,16|17,thesaltiestboys@gmail.com,7067555017,"... optional ...","... optional ...","... optional ...","... optional ...",CJ,on,12,thesaltiestboys@gmail.com,visitor2,notes
intime,FNAME,LNAME,CTG,box,email,phone,city,state,zip,visitor2,notes
1490415853,"jennifer ",castro,vs,1|3|4|5|8|9|10|14|15|16|17|20|21,jennycstrox3@gmail.com,4244776379,"... optional ...","... optional ...","... optional ...",visitor2,notes
intime,FNAME,LNAME,CTG,box,email,phone,city,state,zip,Prospective0,GenderF0,Age0,propemail0,visitor2,notes
1490403166,Hailey,Ivanson,vs,0|1|2|3|4|5|6|7|8|9|10|11|13|14|15|16|17|20,hcivanson@gmail.com,1(310)341-8333,"... optional ...","... optional ...","... optional ...","Hailey Ivanson",on,14,hcivanson@gmail.com,visitor2,notes
intime,FNAME,LNAME,CTG,box,email,phone,address,city,state,zip,Prospective0,GenderM0,Age0,propemail0,visitor2,visitornotes,notes
1490118884,"Nancy K",Brigden,vs,3|5|10|17,nkbrigden@gmail.com,"310 245-4975","... optional ...","... optional ...","... optional ...","... optional ...","John A Gastanaga",on,12,jagman329@gmail.com,visitor2,"John wants to build a computer.  (for gaming, with transparent walls, etc.......lots of ideas!)",notes
intime,FNAME,LNAME,CTG,box,email,address,city,state,zip,Prospective0,GenderF0,Age0,visitor2,notes
1489457438,Zoe,Santoro,vs,1|4|5|6|8|9|13|14|15|16|17,zzoe12@gmail.com,"... optional ...","... optional ...","... optional ...","... optional ...","Zoe Santoro",on,17,visitor2,notes
intime,FNAME,LNAME,CTG,box,email,phone,city,state,zip,Prospective0,GenderF0,Age0,propemail0,visitor2,notes
1488934729,karie,shehadey,vs,0|1|2|3|4|5|6|7|8|9|10|11|12|13|14|15|16|17,madsoph825@gmail.com,3109720015,"... optional ...","... optional ...","... optional ...","maddie shehadey",on,10,madsoph825@gmail.com,visitor2,notes
intime,FNAME,LNAME,CTG,box,email,phone,address,city,state,zip,Prospective0,GenderF0,propemail0,visitor2,visitornotes,notes
1488934652,Heather,Fleming,vs,0|1|2|3|4|5|6|7|8|9|10|11|12|13|14|15|16|17|22,hfleming48@gmail.com,"310 487 2051","... optional ...","... optional ...","... optional ...","... optional ...",Nova,on,hfleming48@gmail.com,visitor2,"Thank you!",notes
intime,CTG,box,address,city,state,zip,visitor2,notes
1488590523,vs,12|13|14|15|16|17|18|19|20|21|22|23,"... optional ...","... optional ...","... optional ...","... optional ...",visitor2,notes
intime,FNAME,LNAME,CTG,box,email,phone,address,city,state,zip,visitor2,notes
1488409355,Owen,Liebenberg,vs,1|5|6|11|12|13|15|17,owen.liebenberg@gmail.com,(310)857-9209,"... optional ...","... optional ...","... optional ...","... optional ...",visitor2,notes
intime,FNAME,LNAME,CTG,box,email,phone,address,city,state,zip,Prospective0,GenderF0,Age0,propemail0,visitor2,notes
1487992146,Kim,Crocker,vs,3|4|5|11|13|14|16|17|18,kimcrocker@comcast.net,301275-4416,"3805 Crestway Place","Los Angeles",Ca,90043,"Brooke Crocker",on,14,4louise2@gmail.com,visitor2,notes
intime,FNAME,LNAME,CTG,box,email,phone,city,state,zip,visitor2,notes
1487898090,michael,destephen,vs,1|2|3|4|5|6|7|8|9|11|12|13|14|15|17,michaeldestephen@yahoo.com,3102932915,"... optional ...",CA,90274,visitor2,notes
intime,FNAME,LNAME,CTG,box,email,address,city,state,zip,visitor2
1487456265,Charles,Ludlow,vs,3|4|5|13|14|17,charlesludlow@yahoo.com,"... optional ...","... optional ...","... optional ...","... optional ...",visitor2
intime,FNAME,LNAME,CTG,box,email,phone,city,state,zip,visitor2
1487360307,KRISTEL,SCHEUERMANN,vs,9|10|17,cita1030@gmail.com,3109899890,"... optional ...","... optional ...","... optional ...",visitor2
intime,FNAME,LNAME,CTG,box,gender,address,city,state,zip,email,phone,visitor2
1486874682,charlie,villegas,vs,0|1|3|4|5|8|9|10|15|17,male,"5342 sharynne ln",torrance,california,90501,ajsdaddy06457@yahoo.com,3107043925,visitor2
intime,FNAME,LNAME,CTG,box,gender,address,city,state,zip,email,phone,visitor2
1486758663,jonathan,kaiser,vs,14|16|17,female,(optional),(optional),(optional),(optional),ohdarlinglisa@gmail.com,5203018605,visitor2
intime,FNAME,LNAME,CTG,box,address,city,state,zip,email,visitor2
1486255553,Sandra,Caryl,vs,17,(optional),(optional),(optional),(optional),sandra@tokilabvr.com,visitor2
intime,FNAME,CTG,box,address,city,state,zip,email,visitor2
1486085739,Westley,vs,0|1|2|3|4|5|6|7|8|9|11|12|13|14|15|16|17,(optional),"Rancho Palos Verdes",CA,90275,superzer0@mail.com,visitor2
intime,FNAME,LNAME,CTG,box,visitor2
1484701824,David,Gerard,vs,17,visitor2
